[
    {"ca":"CANARIAS","province":"SANTA CRUZ DE TENERIFE","locality":"Adeje","postalCode":"38660","nutsCode":"ES709"},
    {"ca":"LA RIOJA","province":"LA RIOJA","locality":"Albelda de Iregua","postalCode":"26120","nutsCode":"ES230"},
    {"ca":"COMUNIDAD VALENCIANA","province":"CASTELLÓN","locality":"Albocàsser","postalCode":"12140","nutsCode":"ES522"},
    {"ca":"ANDALUCÍA","province":"SEVILLA","locality":"Alcalá de Guadaíra","postalCode":"41500","nutsCode":"ES618"},
    {"ca":"MADRID","province":"MADRID","locality":"Alcalá de Henares","postalCode":"28805","nutsCode":"ES300"},
    {"ca":"MADRID","province":"MADRID","locality":"Alcalá de Henares","postalCode":"28801","nutsCode":"ES300"},
    {"ca":"ANDALUCÍA","province":"JAÉN","locality":"Alcalá la Real","postalCode":"23680","nutsCode":"ES616"},
    {"ca":"REGIÓN DE MURCIA","province":"MURCIA","locality":"Alcantarilla","postalCode":"30820","nutsCode":"ES620"},
    {"ca":"ARAGÓN","province":"TERUEL","locality":"Alcañiz","postalCode":"44600","nutsCode":"ES242"},
    {"ca":"ANDALUCÍA","province":"JAÉN","locality":"Alcaudete","postalCode":"23660","nutsCode":"ES616"},
    {"ca":"CASTILLA-LA MANCHA","province":"CIUDAD REAL","locality":"Alcázar de San Juan","postalCode":"13600","nutsCode":"ES422"},
    {"ca":"MADRID","province":"MADRID","locality":"Alcorcón","postalCode":"28922","nutsCode":"ES300"},
    {"ca":"MADRID","province":"MADRID","locality":"Alcorcón","postalCode":"28922","nutsCode":"ES300"},
    {"ca":"COMUNIDAD VALENCIANA","province":"ALICANTE","locality":"Alcoy/Alcoi","postalCode":"3802","nutsCode":"ES521"},
    {"ca":"COMUNIDAD VALENCIANA","province":"ALICANTE","locality":"Alcoy/Alcoi","postalCode":"3804","nutsCode":"ES521"},
    {"ca":"CATALUÑA","province":"BARCELONA","locality":"Alella","postalCode":"8328","nutsCode":"ES511"},
    {"ca":"ANDALUCÍA","province":"CÁDIZ","locality":"Algeciras","postalCode":"11207","nutsCode":"ES612"},
    {"ca":"CATALUÑA","province":"LLEIDA","locality":"Almacelles","postalCode":"25100","nutsCode":"ES513"},
    {"ca":"CASTILLA-LA MANCHA","province":"ALBACETE","locality":"Almansa","postalCode":"2640","nutsCode":"ES421"},
    {"ca":"EXTREMADURA","province":"BADAJOZ","locality":"Almendralejo","postalCode":"6200","nutsCode":"ES431"},
    {"ca":"EXTREMADURA","province":"BADAJOZ","locality":"Almendralejo","postalCode":"6200","nutsCode":"ES431"},
    {"ca":"CATALUÑA","province":"LLEIDA","locality":"Alpicat","postalCode":"25110","nutsCode":"ES513"},
    {"ca":"C. FORAL DE NAVARRA","province":"NAVARRA","locality":"Altsasu/Alsasua","postalCode":"31800","nutsCode":"ES220"},
    {"ca":"COMUNIDAD VALENCIANA","province":"VALENCIA","locality":"Alzira","postalCode":"46600","nutsCode":"ES523"},
    {"ca":"CATALUÑA","province":"BARCELONA","locality":"Ametlla del Vallès, L'","postalCode":"8480","nutsCode":"ES511"},
    {"ca":"CATALUÑA","province":"TARRAGONA","locality":"Amposta","postalCode":"43870","nutsCode":"ES514"},
    {"ca":"CATALUÑA","province":"TARRAGONA","locality":"Amposta","postalCode":"43870","nutsCode":"ES514"},
    {"ca":"ANDALUCÍA","province":"JAÉN","locality":"Andújar","postalCode":"23740","nutsCode":"ES616"},
    {"ca":"ANDALUCÍA","province":"MALAGA","locality":"Antequera","postalCode":"29200","nutsCode":"ES617"},
    {"ca":"CASTILLA Y LEÓN","province":"BURGOS","locality":"Aranda de Duero","postalCode":"9400","nutsCode":"ES412"},
    {"ca":"CASTILLA Y LEÓN","province":"BURGOS","locality":"Aranda de Duero","postalCode":"9400","nutsCode":"ES412"},
    {"ca":"MADRID","province":"MADRID","locality":"Aranjuez","postalCode":"28300","nutsCode":"ES300"},
    {"ca":"CATALUÑA","province":"BARCELONA","locality":"Arenys de Munt","postalCode":"8358","nutsCode":"ES511"},
    {"ca":"CASTILLA Y LEÓN","province":"ÁVILA","locality":"Arévalo","postalCode":"5200","nutsCode":"ES411"},
    {"ca":"MADRID","province":"MADRID","locality":"Arganda del Rey","postalCode":"28500","nutsCode":"ES300"},
    {"ca":"CATALUÑA","province":"BARCELONA","locality":"Argentona","postalCode":"8310","nutsCode":"ES511"},
    {"ca":"CATALUÑA","province":"BARCELONA","locality":"Argentona","postalCode":"8310","nutsCode":"ES511"},
    {"ca":"CANARIAS","province":"SANTA CRUZ DE TENERIFE","locality":"Arona","postalCode":"38650","nutsCode":"ES709"},
    {"ca":"CANARIAS","province":"SANTA CRUZ DE TENERIFE","locality":"Arona","postalCode":"38660","nutsCode":"ES709"},
    {"ca":"PAÍS VASCO","province":"GUIPÚZCOA","locality":"Arrasate/Mondragón","postalCode":"20500","nutsCode":"ES212"},
    {"ca":"PAÍS VASCO","province":"GUIPÚZCOA","locality":"Arrasate/Mondragón","postalCode":"20509","nutsCode":""},
    {"ca":"PAÍS VASCO","province":"GUIPÚZCOA","locality":"Arrasate/Mondragón","postalCode":"20509","nutsCode":""},
    {"ca":"CANARIAS","province":"LAS PALMAS","locality":"Arrecife","postalCode":"35500","nutsCode":"ES708"},
    {"ca":"CANARIAS","province":"LAS PALMAS","locality":"Arrecife","postalCode":"35500","nutsCode":"ES708"},
    {"ca":"PPDO. DE ASTURIAS","province":"ASTURIAS","locality":"Avilés","postalCode":"33401","nutsCode":"ES120"},
    {"ca":"PPDO. DE ASTURIAS","province":"ASTURIAS","locality":"Avilés","postalCode":"33401","nutsCode":"ES120"},
    {"ca":"CATALUÑA","province":"BARCELONA","locality":"Badalona","postalCode":"8916","nutsCode":"ES511"},
    {"ca":"CATALUÑA","province":"BARCELONA","locality":"Badalona","postalCode":"8917","nutsCode":"ES511"},
    {"ca":"CATALUÑA","province":"BARCELONA","locality":"Badalona","postalCode":"8916","nutsCode":"ES511"},
    {"ca":"CATALUÑA","province":"BARCELONA","locality":"Badalona","postalCode":"8911","nutsCode":"ES511"},
    {"ca":"CATALUÑA","province":"BARCELONA","locality":"Badalona","postalCode":"8916","nutsCode":"ES511"},
    {"ca":"CATALUÑA","province":"LLEIDA","locality":"Balaguer","postalCode":"25600","nutsCode":"ES513"},
    {"ca":"CATALUÑA","province":"GIRONA","locality":"Banyoles","postalCode":"17820","nutsCode":"ES512"},
    {"ca":"PAÍS VASCO","province":"VIZCAYA","locality":"Barakaldo","postalCode":"48903","nutsCode":"ES213"},
    {"ca":"PAÍS VASCO","province":"VIZCAYA","locality":"Barakaldo","postalCode":"48902","nutsCode":"ES213"},
    {"ca":"GALICIA","province":"OURENSE","locality":"Barbadás","postalCode":"32930","nutsCode":"ES113"},
    {"ca":"ARAGÓN","province":"HUESCA","locality":"Barbastro","postalCode":"22300","nutsCode":"ES241"},
    {"ca":"GALICIA","province":"OURENSE","locality":"Barco de Valdeorras, O","postalCode":"32300","nutsCode":"ES113"},
    {"ca":"ANDALUCÍA","province":"CÁDIZ","locality":"Barrios, Los","postalCode":" EDIFICIO ARTTYSUR\"","nutsCode":""},
    {"ca":"ANDALUCÍA","province":"GRANADA","locality":"Baza","postalCode":"18800","nutsCode":"ES614"},
    {"ca":"C. FORAL DE NAVARRA","province":"NAVARRA","locality":"Baztan","postalCode":"31700","nutsCode":"ES220"},
    {"ca":"ANDALUCÍA","province":"MALAGA","locality":"Benalmádena","postalCode":"29630","nutsCode":"ES617"},
    {"ca":"ANDALUCÍA","province":"MALAGA","locality":"Benalmádena","postalCode":"29630","nutsCode":"ES617"},
    {"ca":"ANDALUCÍA","province":"MALAGA","locality":"Benalmádena","postalCode":"29631","nutsCode":"ES617"},
    {"ca":"CASTILLA Y LEÓN","province":"ZAMORA","locality":"Benavente","postalCode":"49600","nutsCode":"ES419"},
    {"ca":"COMUNIDAD VALENCIANA","province":"ALICANTE","locality":"Beniarbeig","postalCode":"3778","nutsCode":"ES521"},
    {"ca":"COMUNIDAD VALENCIANA","province":"ALICANTE","locality":"Benidorm","postalCode":"3501","nutsCode":"ES521"},
    {"ca":"CATALUÑA","province":"BARCELONA","locality":"Berga","postalCode":"8600","nutsCode":"ES511"},
    {"ca":"PAÍS VASCO","province":"VIZCAYA","locality":"Bermeo","postalCode":"48370","nutsCode":"ES213"},
    {"ca":"COMUNIDAD VALENCIANA","province":"VALENCIA","locality":"Bétera","postalCode":"46117","nutsCode":"ES523"},
    {"ca":"CATALUÑA","province":"GIRONA","locality":"Blanes","postalCode":"17300","nutsCode":"ES512"},
    {"ca":"CATALUÑA","province":"GIRONA","locality":"Blanes","postalCode":"17300","nutsCode":"ES512"},
    {"ca":"MADRID","province":"MADRID","locality":"Boadilla del Monte","postalCode":"28660","nutsCode":"ES300"},
    {"ca":"ANDALUCÍA","province":"SEVILLA","locality":"Bormujos","postalCode":"41930","nutsCode":"ES618"},
    {"ca":"ANDALUCÍA","province":"SEVILLA","locality":"Bormujos","postalCode":"41930","nutsCode":"ES618"},
    {"ca":"CANARIAS","province":"SANTA CRUZ DE TENERIFE","locality":"Breña Alta","postalCode":"38713","nutsCode":"ES707"},
    {"ca":"MADRID","province":"MADRID","locality":"Brunete","postalCode":"28690","nutsCode":"ES300"},
    {"ca":"ILLES BALEARS","province":"ILLES BALEARS","locality":"Bunyola","postalCode":"7110","nutsCode":"ES532"},
    {"ca":"GALICIA","province":"LUGO","locality":"Burela","postalCode":"27880","nutsCode":"ES112"},
    {"ca":"COMUNIDAD VALENCIANA","province":"VALENCIA","locality":"Burjassot","postalCode":"46100","nutsCode":"ES523"},
    {"ca":"ANDALUCÍA","province":"CÓRDOBA","locality":"Cabra","postalCode":"14940","nutsCode":"ES613"},
    {"ca":"EXTREMADURA","province":"CÁCERES","locality":"Cáceres","postalCode":"10003","nutsCode":"ES432"},
    {"ca":"EXTREMADURA","province":"CÁCERES","locality":"Cáceres","postalCode":"10001","nutsCode":"ES432"},
    {"ca":"LA RIOJA","province":"LA RIOJA","locality":"Calahorra","postalCode":"26500","nutsCode":"ES230"},
    {"ca":"LA RIOJA","province":"LA RIOJA","locality":"Calahorra","postalCode":"26500","nutsCode":"ES230"},
    {"ca":"ARAGÓN","province":"ZARAGOZA","locality":"Calatayud","postalCode":"50300","nutsCode":"ES243"},
    {"ca":"CATALUÑA","province":"BARCELONA","locality":"Caldes de Montbui","postalCode":"8140","nutsCode":"ES511"},
    {"ca":"CATALUÑA","province":"BARCELONA","locality":"Calella","postalCode":"8370","nutsCode":"ES511"},
    {"ca":"CATALUÑA","province":"GIRONA","locality":"Campdevànol","postalCode":"17530","nutsCode":"ES512"},
    {"ca":"PPDO. DE ASTURIAS","province":"ASTURIAS","locality":"Cangas del Narcea","postalCode":"33800","nutsCode":"ES120"},
    {"ca":"REGIÓN DE MURCIA","province":"MURCIA","locality":"Caravaca de la Cruz","postalCode":"30400","nutsCode":"ES620"},
    {"ca":"REGIÓN DE MURCIA","province":"MURCIA","locality":"Caravaca de la Cruz","postalCode":"30400","nutsCode":"ES620"},
    {"ca":"COMUNIDAD VALENCIANA","province":"VALENCIA","locality":"Carcaixent","postalCode":"46792","nutsCode":"ES523"},
    {"ca":"COMUNIDAD VALENCIANA","province":"VALENCIA","locality":"Carcaixent","postalCode":"46740","nutsCode":"ES523"},
    {"ca":"CASTILLA Y LEÓN","province":"SALAMANCA","locality":"Carrascal de Barregas","postalCode":"37192","nutsCode":"ES415"},
    {"ca":"REGIÓN DE MURCIA","province":"MURCIA","locality":"Cartagena","postalCode":"30203","nutsCode":"ES620"},
    {"ca":"REGIÓN DE MURCIA","province":"MURCIA","locality":"Cartagena","postalCode":"30310","nutsCode":"ES620"},
    {"ca":"REGIÓN DE MURCIA","province":"MURCIA","locality":"Cartagena","postalCode":"30205","nutsCode":"ES620"},
    {"ca":"REGIÓN DE MURCIA","province":"MURCIA","locality":"Cartagena","postalCode":"30396","nutsCode":"ES620"},
    {"ca":"REGIÓN DE MURCIA","province":"MURCIA","locality":"Cartagena","postalCode":"30204","nutsCode":"ES620"},
    {"ca":"REGIÓN DE MURCIA","province":"MURCIA","locality":"Cartagena","postalCode":"30202","nutsCode":"ES620"},
    {"ca":"REGIÓN DE MURCIA","province":"MURCIA","locality":"Cartagena","postalCode":"30205","nutsCode":"ES620"},
    {"ca":"REGIÓN DE MURCIA","province":"MURCIA","locality":"Cartagena","postalCode":"30203","nutsCode":"ES620"},
    {"ca":"ANDALUCÍA","province":"MALAGA","locality":"Cártama","postalCode":"29570","nutsCode":"ES617"},
    {"ca":"ANDALUCÍA","province":"SEVILLA","locality":"Castilleja de la Cuesta","postalCode":"41950","nutsCode":"ES618"},
    {"ca":"GALICIA","province":"A CORUÑA","locality":"Cee","postalCode":"15270","nutsCode":"ES111"},
    {"ca":"REGIÓN DE MURCIA","province":"MURCIA","locality":"Cehegín","postalCode":"30430","nutsCode":"ES620"},
    {"ca":"MADRID","province":"MADRID","locality":"Cercedilla","postalCode":"28470","nutsCode":"ES300"},
    {"ca":"ANDALUCÍA","province":"CÁDIZ","locality":"Chiclana de la Frontera","postalCode":"11130","nutsCode":"ES612"},
    {"ca":"ANDALUCÍA","province":"CÁDIZ","locality":"Chiclana de la Frontera","postalCode":"11130","nutsCode":"ES612"},
    {"ca":"MADRID","province":"MADRID","locality":"Ciempozuelos","postalCode":"28350","nutsCode":"ES300"},
    {"ca":"MADRID","province":"MADRID","locality":"Ciempozuelos","postalCode":"28350","nutsCode":"ES300"},
    {"ca":"REGIÓN DE MURCIA","province":"MURCIA","locality":"Cieza","postalCode":"30530","nutsCode":"ES620"},
    {"ca":"ILLES BALEARS","province":"ILLES BALEARS","locality":"Ciutadella de Menorca","postalCode":"7760","nutsCode":"ES533"},
    {"ca":"PPDO. DE ASTURIAS","province":"ASTURIAS","locality":"Coaña","postalCode":"33719","nutsCode":"ES120"},
    {"ca":"MADRID","province":"MADRID","locality":"Collado Villalba","postalCode":"28400","nutsCode":"ES300"},
    {"ca":"ANDALUCÍA","province":"SEVILLA","locality":"Constantina","postalCode":"41450","nutsCode":"ES618"},
    {"ca":"EXTREMADURA","province":"CÁCERES","locality":"Coria","postalCode":"10800","nutsCode":"ES432"},
    {"ca":"CATALUÑA","province":"BARCELONA","locality":"Cornellà de Llobregat","postalCode":"8940","nutsCode":"ES511"},
    {"ca":"MADRID","province":"MADRID","locality":"Coslada","postalCode":"28822","nutsCode":"ES300"},
    {"ca":"MADRID","province":"MADRID","locality":"Coslada","postalCode":"28823","nutsCode":"ES300"},
    {"ca":"COMUNIDAD VALENCIANA","province":"ALICANTE","locality":"Dénia","postalCode":"3700","nutsCode":"ES521"},
    {"ca":"COMUNIDAD VALENCIANA","province":"ALICANTE","locality":"Dénia","postalCode":"3700","nutsCode":"ES521"},
    {"ca":"COMUNIDAD VALENCIANA","province":"ALICANTE","locality":"Dénia","postalCode":"3700","nutsCode":"ES521"},
    {"ca":"EXTREMADURA","province":"BADAJOZ","locality":"Don Benito","postalCode":"6400","nutsCode":"ES431"},
    {"ca":"EXTREMADURA","province":"BADAJOZ","locality":"Don Benito","postalCode":"6400","nutsCode":"ES431"},
    {"ca":"EXTREMADURA","province":"BADAJOZ","locality":"Don Benito","postalCode":"6400","nutsCode":"ES431"},
    {"ca":"ANDALUCÍA","province":"SEVILLA","locality":"Dos Hermanas","postalCode":"41703","nutsCode":"ES618"},
    {"ca":"ANDALUCÍA","province":"SEVILLA","locality":"Dos Hermanas","postalCode":"41089","nutsCode":"ES618"},
    {"ca":"ANDALUCÍA","province":"SEVILLA","locality":"Écija","postalCode":"41400","nutsCode":"ES618"},
    {"ca":"ILLES BALEARS","province":"ILLES BALEARS","locality":"Eivissa","postalCode":"7800","nutsCode":"ES531"},
    {"ca":"ILLES BALEARS","province":"ILLES BALEARS","locality":"Eivissa","postalCode":"7800","nutsCode":"ES531"},
    {"ca":"ILLES BALEARS","province":"ILLES BALEARS","locality":"Eivissa","postalCode":"7800","nutsCode":"ES531"},
    {"ca":"ARAGÓN","province":"ZARAGOZA","locality":"Ejea de los Caballeros","postalCode":"50600","nutsCode":"ES243"},
    {"ca":"ANDALUCÍA","province":"ALMERÍA","locality":"Ejido, El","postalCode":"4700","nutsCode":"ES611"},
    {"ca":"COMUNIDAD VALENCIANA","province":"ALICANTE","locality":"Elche/Elx","postalCode":"3293","nutsCode":"ES521"},
    {"ca":"COMUNIDAD VALENCIANA","province":"ALICANTE","locality":"Elche/Elx","postalCode":"3203","nutsCode":"ES521"},
    {"ca":"COMUNIDAD VALENCIANA","province":"ALICANTE","locality":"Elche/Elx","postalCode":"3203","nutsCode":"ES521"},
    {"ca":"COMUNIDAD VALENCIANA","province":"ALICANTE","locality":"Elda","postalCode":"3600","nutsCode":"ES521"},
    {"ca":"PAÍS VASCO","province":"VIZCAYA","locality":"Erandio","postalCode":"48950","nutsCode":"ES213"},
    {"ca":"CATALUÑA","province":"BARCELONA","locality":"Esplugues de Llobregat","postalCode":"8950","nutsCode":"ES511"},
    {"ca":"CATALUÑA","province":"BARCELONA","locality":"Esplugues de Llobregat","postalCode":"8950","nutsCode":"ES511"},
    {"ca":"CATALUÑA","province":"BARCELONA","locality":"Esplugues de Llobregat","postalCode":"8950","nutsCode":"ES511"},
    {"ca":"CATALUÑA","province":"BARCELONA","locality":"Esplugues de Llobregat","postalCode":"8950","nutsCode":"ES511"},
    {"ca":"C. FORAL DE NAVARRA","province":"NAVARRA","locality":"Estella-Lizarra","postalCode":"31200","nutsCode":"ES220"},
    {"ca":"ANDALUCÍA","province":"MALAGA","locality":"Estepona","postalCode":"29680","nutsCode":"ES617"},
    {"ca":"ANDALUCÍA","province":"MALAGA","locality":"Estepona","postalCode":"29680","nutsCode":"ES617"},
    {"ca":"GALICIA","province":"A CORUÑA","locality":"Ferrol","postalCode":"15405","nutsCode":"ES111"},
    {"ca":"GALICIA","province":"A CORUÑA","locality":"Ferrol","postalCode":"15406","nutsCode":"ES111"},
    {"ca":"GALICIA","province":"A CORUÑA","locality":"Ferrol","postalCode":"15405","nutsCode":"ES111"},
    {"ca":"GALICIA","province":"A CORUÑA","locality":"Ferrol","postalCode":"15405","nutsCode":"ES111"},
    {"ca":"CATALUÑA","province":"GIRONA","locality":"Figueres","postalCode":"17600","nutsCode":"ES512"},
    {"ca":"CATALUÑA","province":"GIRONA","locality":"Figueres","postalCode":"17600","nutsCode":"ES512"},
    {"ca":"CATALUÑA","province":"GIRONA","locality":"Figueres","postalCode":"17600","nutsCode":"ES512"},
    {"ca":"ILLES BALEARS","province":"ILLES BALEARS","locality":"Formentera","postalCode":"7860","nutsCode":"ES531"},
    {"ca":"ARAGÓN","province":"HUESCA","locality":"Fraga","postalCode":"22520","nutsCode":"ES241"},
    {"ca":"MADRID","province":"MADRID","locality":"Fuenlabrada","postalCode":"28942","nutsCode":"ES300"},
    {"ca":"PAÍS VASCO","province":"VIZCAYA","locality":"Galdakao","postalCode":"48960","nutsCode":"ES213"},
    {"ca":"COMUNIDAD VALENCIANA","province":"VALENCIA","locality":"Gandia","postalCode":"46702","nutsCode":"ES523"},
    {"ca":"COMUNIDAD VALENCIANA","province":"VALENCIA","locality":"Gandia","postalCode":"46700","nutsCode":"ES523"},
    {"ca":"MADRID","province":"MADRID","locality":"Getafe","postalCode":"28905","nutsCode":"ES300"},
    {"ca":"PPDO. DE ASTURIAS","province":"ASTURIAS","locality":"Gijón","postalCode":"33202","nutsCode":"ES120"},
    {"ca":"PPDO. DE ASTURIAS","province":"ASTURIAS","locality":"Gijón","postalCode":"33204","nutsCode":"ES120"},
    {"ca":"PPDO. DE ASTURIAS","province":"ASTURIAS","locality":"Gijón","postalCode":"33290","nutsCode":"ES120"},
    {"ca":"PPDO. DE ASTURIAS","province":"ASTURIAS","locality":"Gijón","postalCode":"33203","nutsCode":"ES120"},
    {"ca":"PPDO. DE ASTURIAS","province":"ASTURIAS","locality":"Gijón","postalCode":"33204","nutsCode":"ES120"},
    {"ca":"PPDO. DE ASTURIAS","province":"ASTURIAS","locality":"Gijón","postalCode":"33394","nutsCode":"ES120"},
    {"ca":"PPDO. DE ASTURIAS","province":"ASTURIAS","locality":"Gijón","postalCode":"33201","nutsCode":"ES120"},
    {"ca":"PPDO. DE ASTURIAS","province":"ASTURIAS","locality":"Gijón","postalCode":"33203","nutsCode":"ES120"},
    {"ca":"COMUNIDAD VALENCIANA","province":"VALENCIA","locality":"Godella","postalCode":"46110","nutsCode":"ES523"},
    {"ca":"PAÍS VASCO","province":"VIZCAYA","locality":"Gorliz","postalCode":"48630","nutsCode":"ES213"},
    {"ca":"CATALUÑA","province":"BARCELONA","locality":"Granollers","postalCode":"8402","nutsCode":"ES511"},
    {"ca":"CATALUÑA","province":"BARCELONA","locality":"Granollers","postalCode":"8402","nutsCode":"ES511"},
    {"ca":"CATALUÑA","province":"BARCELONA","locality":"Granollers","postalCode":"8402","nutsCode":"ES511"},
    {"ca":"MADRID","province":"MADRID","locality":"Guadarrama","postalCode":"28440","nutsCode":"ES300"},
    {"ca":"MADRID","province":"MADRID","locality":"Guadarrama","postalCode":"28440","nutsCode":"ES300"},
    {"ca":"ANDALUCÍA","province":"GRANADA","locality":"Guadix","postalCode":"18500","nutsCode":"ES614"},
    {"ca":"LA RIOJA","province":"LA RIOJA","locality":"Haro","postalCode":"26200","nutsCode":"ES230"},
    {"ca":"CASTILLA-LA MANCHA","province":"ALBACETE","locality":"Hellín","postalCode":"2400","nutsCode":"ES421"},
    {"ca":"PAÍS VASCO","province":"GUIPÚZCOA","locality":"Hondarribia","postalCode":"20280","nutsCode":"ES212"},
    {"ca":"CATALUÑA","province":"BARCELONA","locality":"Hospitalet de Llobregat, L'","postalCode":"8906","nutsCode":"ES511"},
    {"ca":"CATALUÑA","province":"BARCELONA","locality":"Hospitalet de Llobregat, L'","postalCode":"8902","nutsCode":"ES511"},
    {"ca":"CATALUÑA","province":"BARCELONA","locality":"Hospitalet de Llobregat, L'","postalCode":"8905","nutsCode":"ES511"},
    {"ca":"CATALUÑA","province":"BARCELONA","locality":"Hospitalet de Llobregat, L'","postalCode":"8908","nutsCode":"ES511"},
    {"ca":"CATALUÑA","province":"BARCELONA","locality":"Hospitalet de Llobregat, L'","postalCode":"8906","nutsCode":"ES511"},
    {"ca":"CATALUÑA","province":"BARCELONA","locality":"Hospitalet de Llobregat, L'","postalCode":"8907","nutsCode":"ES511"},
    {"ca":"CATALUÑA","province":"BARCELONA","locality":"Hospitalet de Llobregat, L'","postalCode":"8908","nutsCode":"ES511"},
    {"ca":"ANDALUCÍA","province":"ALMERÍA","locality":"Huércal-Overa","postalCode":"4600","nutsCode":"ES611"},
    {"ca":"CANARIAS","province":"SANTA CRUZ DE TENERIFE","locality":"Icod de los Vinos","postalCode":"38430","nutsCode":"ES709"},
    {"ca":"CANARIAS","province":"SANTA CRUZ DE TENERIFE","locality":"Icod de los Vinos","postalCode":"38437","nutsCode":""},
    {"ca":"CATALUÑA","province":"BARCELONA","locality":"Igualada","postalCode":"8700","nutsCode":"ES511"},
    {"ca":"CATALUÑA","province":"BARCELONA","locality":"Igualada","postalCode":"8700","nutsCode":"ES511"},
    {"ca":"ILLES BALEARS","province":"ILLES BALEARS","locality":"Inca","postalCode":"7300","nutsCode":"ES532"},
    {"ca":"ARAGÓN","province":"HUESCA","locality":"Jaca","postalCode":"22700","nutsCode":"ES241"},
    {"ca":"ANDALUCÍA","province":"CÁDIZ","locality":"Jerez de la Frontera","postalCode":"11405","nutsCode":"ES612"},
    {"ca":"ANDALUCÍA","province":"CÁDIZ","locality":"Jerez de la Frontera","postalCode":"11408","nutsCode":"ES612"},
    {"ca":"ANDALUCÍA","province":"CÁDIZ","locality":"Jerez de la Frontera","postalCode":"11408","nutsCode":"ES612"},
    {"ca":"ANDALUCÍA","province":"CÁDIZ","locality":"Jerez de la Frontera","postalCode":"11408","nutsCode":"ES612"},
    {"ca":"ANDALUCÍA","province":"CÁDIZ","locality":"Jerez de la Frontera","postalCode":"11407","nutsCode":"ES612"},
    {"ca":"CATALUÑA","province":"LLEIDA","locality":"Juneda","postalCode":"25430","nutsCode":"ES513"},
    {"ca":"PAÍS VASCO","province":"ÁLAVA","locality":"Laguardia","postalCode":"1309","nutsCode":"ES211"},
    {"ca":"PPDO. DE ASTURIAS","province":"ASTURIAS","locality":"Langreo","postalCode":"33900","nutsCode":"ES120"},
    {"ca":"PPDO. DE ASTURIAS","province":"ASTURIAS","locality":"Langreo","postalCode":"33920","nutsCode":"ES120"},
    {"ca":"LA RIOJA","province":"LA RIOJA","locality":"Lardero","postalCode":"26140","nutsCode":"ES230"},
    {"ca":"CANTABRIA","province":"CANTABRIA","locality":"Laredo","postalCode":"39770","nutsCode":"ES130"},
    {"ca":"ANDALUCÍA","province":"SEVILLA","locality":"Lebrija","postalCode":"41740","nutsCode":"ES618"},
    {"ca":"MADRID","province":"MADRID","locality":"Leganés","postalCode":"28911","nutsCode":"ES300"},
    {"ca":"MADRID","province":"MADRID","locality":"Leganés","postalCode":"28911","nutsCode":"ES300"},
    {"ca":"MADRID","province":"MADRID","locality":"Leganés","postalCode":"28911","nutsCode":"ES300"},
    {"ca":"MADRID","province":"MADRID","locality":"Leganés","postalCode":"28914","nutsCode":"ES300"},
    {"ca":"ANDALUCÍA","province":"HUELVA","locality":"Lepe","postalCode":"21440","nutsCode":"ES615"},
    {"ca":"ANDALUCÍA","province":"JAÉN","locality":"Linares","postalCode":"23700","nutsCode":"ES616"},
    {"ca":"ANDALUCÍA","province":"CÁDIZ","locality":"Línea de la Concepción, La","postalCode":"11300","nutsCode":"ES612"},
    {"ca":"PPDO. DE ASTURIAS","province":"ASTURIAS","locality":"Llanera","postalCode":"33690","nutsCode":"ES120"},
    {"ca":"CATALUÑA","province":"LLEIDA","locality":"Lleida","postalCode":"25001","nutsCode":"ES513"},
    {"ca":"EXTREMADURA","province":"BADAJOZ","locality":"Llerena","postalCode":"6900","nutsCode":"ES431"},
    {"ca":"EXTREMADURA","province":"BADAJOZ","locality":"Llerena","postalCode":"6900","nutsCode":"ES431"},
    {"ca":"COMUNIDAD VALENCIANA","province":"VALENCIA","locality":"Llíria","postalCode":"46160","nutsCode":"ES523"},
    {"ca":"CATALUÑA","province":"GIRONA","locality":"Lloret de Mar","postalCode":"17310","nutsCode":"ES512"},
    {"ca":"ILLES BALEARS","province":"ILLES BALEARS","locality":"Llucmajor","postalCode":"7609","nutsCode":"ES532"},
    {"ca":"ANDALUCÍA","province":"GRANADA","locality":"Loja","postalCode":"18300","nutsCode":"ES614"},
    {"ca":"REGIÓN DE MURCIA","province":"MURCIA","locality":"Lorca","postalCode":"30800","nutsCode":"ES620"},
    {"ca":"REGIÓN DE MURCIA","province":"MURCIA","locality":"Lorca","postalCode":"30817","nutsCode":"ES620"},
    {"ca":"MADRID","province":"MADRID","locality":"Majadahonda","postalCode":"28222","nutsCode":"ES300"},
    {"ca":"MADRID","province":"MADRID","locality":"Majadahonda","postalCode":"28222","nutsCode":"ES300"},
    {"ca":"ILLES BALEARS","province":"ILLES BALEARS","locality":"Manacor","postalCode":"7500","nutsCode":"ES532"},
    {"ca":"ILLES BALEARS","province":"ILLES BALEARS","locality":"Manacor","postalCode":"7680","nutsCode":"ES532"},
    {"ca":"COMUNIDAD VALENCIANA","province":"VALENCIA","locality":"Manises","postalCode":"46940","nutsCode":"ES523"},
    {"ca":"CATALUÑA","province":"BARCELONA","locality":"Manlleu","postalCode":"8560","nutsCode":"ES511"},
    {"ca":"CATALUÑA","province":"BARCELONA","locality":"Manresa","postalCode":"8243","nutsCode":"ES511"},
    {"ca":"CATALUÑA","province":"BARCELONA","locality":"Manresa","postalCode":"8241","nutsCode":"ES511"},
    {"ca":"CATALUÑA","province":"BARCELONA","locality":"Manresa","postalCode":"8242","nutsCode":"ES511"},
    {"ca":"CATALUÑA","province":"BARCELONA","locality":"Manresa","postalCode":"8241","nutsCode":"ES511"},
    {"ca":"CASTILLA-LA MANCHA","province":"CIUDAD REAL","locality":"Manzanares","postalCode":"13200","nutsCode":"ES422"},
    {"ca":"ILLES BALEARS","province":"ILLES BALEARS","locality":"Maó-Mahón","postalCode":"7703","nutsCode":"ES533"},
    {"ca":"ILLES BALEARS","province":"ILLES BALEARS","locality":"Maó-Mahón","postalCode":"7703","nutsCode":"ES533"},
    {"ca":"ANDALUCÍA","province":"MALAGA","locality":"Marbella","postalCode":"29602","nutsCode":"ES617"},
    {"ca":"ANDALUCÍA","province":"MALAGA","locality":"Marbella","postalCode":"29600","nutsCode":"ES617"},
    {"ca":"ANDALUCÍA","province":"MALAGA","locality":"Marbella","postalCode":"29603","nutsCode":"ES617"},
    {"ca":"ANDALUCÍA","province":"MALAGA","locality":"Marbella","postalCode":"29603","nutsCode":"ES617"},
    {"ca":"ANDALUCÍA","province":"MALAGA","locality":"Marbella","postalCode":"29660","nutsCode":"ES617"},
    {"ca":"ANDALUCÍA","province":"MALAGA","locality":"Marbella","postalCode":"29603","nutsCode":"ES617"},
    {"ca":"CATALUÑA","province":"BARCELONA","locality":"Martorell","postalCode":"8760","nutsCode":"ES511"},
    {"ca":"CATALUÑA","province":"BARCELONA","locality":"Martorell","postalCode":"8760","nutsCode":"ES511"},
    {"ca":"CATALUÑA","province":"BARCELONA","locality":"Mataró","postalCode":"8301","nutsCode":"ES511"},
    {"ca":"CATALUÑA","province":"BARCELONA","locality":"Mataró","postalCode":"8301","nutsCode":"ES511"},
    {"ca":"CATALUÑA","province":"BARCELONA","locality":"Mataró","postalCode":"8304","nutsCode":"ES511"},
    {"ca":"CATALUÑA","province":"BARCELONA","locality":"Mataró","postalCode":"8301","nutsCode":"ES511"},
    {"ca":"CASTILLA Y LEÓN","province":"VALLADOLID","locality":"Medina del Campo","postalCode":"47400","nutsCode":"ES418"},
    {"ca":"PAÍS VASCO","province":"GUIPÚZCOA","locality":"Mendaro","postalCode":"20850","nutsCode":"ES212"},
    {"ca":"EXTREMADURA","province":"BADAJOZ","locality":"Mérida","postalCode":"6800","nutsCode":"ES431"},
    {"ca":"EXTREMADURA","province":"BADAJOZ","locality":"Mérida","postalCode":"6800","nutsCode":"ES431"},
    {"ca":"EXTREMADURA","province":"BADAJOZ","locality":"Mérida","postalCode":"6800","nutsCode":"ES431"},
    {"ca":"EXTREMADURA","province":"BADAJOZ","locality":"Mérida","postalCode":"6800","nutsCode":"ES431"},
    {"ca":"PPDO. DE ASTURIAS","province":"ASTURIAS","locality":"Mieres","postalCode":"33611","nutsCode":"ES120"},
    {"ca":"ANDALUCÍA","province":"HUELVA","locality":"Minas de Riotinto","postalCode":"21660","nutsCode":"ES615"},
    {"ca":"CASTILLA Y LEÓN","province":"BURGOS","locality":"Miranda de Ebro","postalCode":"9200","nutsCode":"ES412"},
    {"ca":"COMUNIDAD VALENCIANA","province":"VALENCIA","locality":"Mislata","postalCode":"46920","nutsCode":"ES523"},
    {"ca":"REGIÓN DE MURCIA","province":"MURCIA","locality":"Molina de Segura","postalCode":"30500","nutsCode":"ES620"},
    {"ca":"CATALUÑA","province":"BARCELONA","locality":"Molins de Rei","postalCode":"8750","nutsCode":"ES511"},
    {"ca":"CATALUÑA","province":"BARCELONA","locality":"Mollet del Vallès","postalCode":"8100","nutsCode":"ES511"},
    {"ca":"CATALUÑA","province":"BARCELONA","locality":"Mollet del Vallès","postalCode":"8100","nutsCode":"ES511"},
    {"ca":"CATALUÑA","province":"BARCELONA","locality":"Mollet del Vallès","postalCode":"8100","nutsCode":"ES511"},
    {"ca":"GALICIA","province":"LUGO","locality":"Monforte de Lemos","postalCode":"27400","nutsCode":"ES112"},
    {"ca":"ANDALUCÍA","province":"CÓRDOBA","locality":"Montilla","postalCode":"14550","nutsCode":"ES613"},
    {"ca":"CATALUÑA","province":"TARRAGONA","locality":"Móra d'Ebre","postalCode":"43740","nutsCode":"ES514"},
    {"ca":"ANDALUCÍA","province":"SEVILLA","locality":"Morón de la Frontera","postalCode":"41530","nutsCode":"ES618"},
    {"ca":"MADRID","province":"MADRID","locality":"Móstoles","postalCode":"28938","nutsCode":"ES300"},
    {"ca":"MADRID","province":"MADRID","locality":"Móstoles","postalCode":"28935","nutsCode":"ES300"},
    {"ca":"MADRID","province":"MADRID","locality":"Móstoles","postalCode":"28933","nutsCode":"ES300"},
    {"ca":"ANDALUCÍA","province":"GRANADA","locality":"Motril","postalCode":"18600","nutsCode":"ES614"},
    {"ca":"ILLES BALEARS","province":"ILLES BALEARS","locality":"Muro","postalCode":"7458","nutsCode":"ES533"},
    {"ca":"COMUNIDAD VALENCIANA","province":"ALICANTE","locality":"Mutxamel","postalCode":"3110","nutsCode":"ES521"},
    {"ca":"MADRID","province":"MADRID","locality":"Navalcarnero","postalCode":"28600","nutsCode":"ES300"},
    {"ca":"EXTREMADURA","province":"CÁCERES","locality":"Navalmoral de la Mata","postalCode":"10300","nutsCode":"ES432"},
    {"ca":"ANDALUCÍA","province":"MALAGA","locality":"Nerja","postalCode":"29780","nutsCode":"ES617"},
    {"ca":"CATALUÑA","province":"LLEIDA","locality":"Oliana","postalCode":"25790","nutsCode":"ES513"},
    {"ca":"CATALUÑA","province":"GIRONA","locality":"Olot","postalCode":"17800","nutsCode":"ES512"},
    {"ca":"COMUNIDAD VALENCIANA","province":"VALENCIA","locality":"Ontinyent","postalCode":"46870","nutsCode":"ES523"},
    {"ca":"COMUNIDAD VALENCIANA","province":"ALICANTE","locality":"Orihuela","postalCode":"3314","nutsCode":"ES521"},
    {"ca":"CANARIAS","province":"SANTA CRUZ DE TENERIFE","locality":"Orotava, La","postalCode":"38312","nutsCode":"ES709"},
    {"ca":"ANDALUCÍA","province":"SEVILLA","locality":"Osuna","postalCode":"41640","nutsCode":"ES618"},
    {"ca":"CATALUÑA","province":"GIRONA","locality":"Palamós","postalCode":"17230","nutsCode":"ES512"},
    {"ca":"CATALUÑA","province":"GIRONA","locality":"Palamós","postalCode":"17230","nutsCode":"ES512"},
    {"ca":"CASTILLA Y LEÓN","province":"SEGOVIA","locality":"Palazuelos de Eresma","postalCode":"40194","nutsCode":"ES416"},
    {"ca":"MADRID","province":"MADRID","locality":"Parla","postalCode":"28981","nutsCode":"ES300"},
    {"ca":"PPDO. DE ASTURIAS","province":"ASTURIAS","locality":"Parres","postalCode":"33540","nutsCode":"ES120"},
    {"ca":"ANDALUCÍA","province":"CÓRDOBA","locality":"Peñarroya-Pueblonuevo","postalCode":"14200","nutsCode":"ES613"},
    {"ca":"GALICIA","province":"A CORUÑA","locality":"Pino, O","postalCode":"15821","nutsCode":"ES111"},
    {"ca":"EXTREMADURA","province":"CÁCERES","locality":"Plasencia","postalCode":"10600","nutsCode":"ES432"},
    {"ca":"EXTREMADURA","province":"CÁCERES","locality":"Plasencia","postalCode":"10600","nutsCode":"ES432"},
    {"ca":"EXTREMADURA","province":"CÁCERES","locality":"Plasencia","postalCode":"10600","nutsCode":"ES432"},
    {"ca":"GALICIA","province":"PONTEVEDRA","locality":"Poio","postalCode":"36163","nutsCode":"ES114"},
    {"ca":"CASTILLA Y LEÓN","province":"LEÓN","locality":"Ponferrada","postalCode":"24404","nutsCode":"ES413"},
    {"ca":"CASTILLA Y LEÓN","province":"LEÓN","locality":"Ponferrada","postalCode":"24401","nutsCode":"ES413"},
    {"ca":"CASTILLA Y LEÓN","province":"LEÓN","locality":"Ponferrada","postalCode":"24404","nutsCode":"ES413"},
    {"ca":"ANDALUCÍA","province":"CÓRDOBA","locality":"Pozoblanco","postalCode":"14400","nutsCode":"ES613"},
    {"ca":"MADRID","province":"MADRID","locality":"Pozuelo de Alarcón","postalCode":"28223","nutsCode":"ES300"},
    {"ca":"ANDALUCÍA","province":"JAÉN","locality":"Puente de Génave","postalCode":"23350","nutsCode":"ES616"},
    {"ca":"ANDALUCÍA","province":"CÓRDOBA","locality":"Puente Genil","postalCode":"14500","nutsCode":"ES613"},
    {"ca":"CANARIAS","province":"SANTA CRUZ DE TENERIFE","locality":"Puerto de la Cruz","postalCode":"38400","nutsCode":"ES709"},
    {"ca":"ANDALUCÍA","province":"CÁDIZ","locality":"Puerto de Santa María, El","postalCode":"11500","nutsCode":"ES612"},
    {"ca":"CANARIAS","province":"LAS PALMAS","locality":"Puerto del Rosario","postalCode":"35600","nutsCode":"ES704"},
    {"ca":"CANARIAS","province":"LAS PALMAS","locality":"Puerto del Rosario","postalCode":"35600","nutsCode":"ES704"},
    {"ca":"ANDALUCÍA","province":"CÁDIZ","locality":"Puerto Real","postalCode":"11510","nutsCode":"ES612"},
    {"ca":"CASTILLA-LA MANCHA","province":"CIUDAD REAL","locality":"Puertollano","postalCode":"13500","nutsCode":"ES422"},
    {"ca":"CATALUÑA","province":"GIRONA","locality":"Puigcerdà","postalCode":"17520","nutsCode":"ES512"},
    {"ca":"CATALUÑA","province":"GIRONA","locality":"Puigcerdà","postalCode":"17520","nutsCode":"ES512"},
    {"ca":"CATALUÑA","province":"BARCELONA","locality":"Puig-reig","postalCode":"8692","nutsCode":"ES511"},
    {"ca":"CATALUÑA","province":"BARCELONA","locality":"Puig-reig","postalCode":"8692","nutsCode":"ES511"},
    {"ca":"COMUNIDAD VALENCIANA","province":"VALENCIA","locality":"Requena","postalCode":"46340","nutsCode":"ES523"},
    {"ca":"CATALUÑA","province":"TARRAGONA","locality":"Reus","postalCode":"43204","nutsCode":"ES514"},
    {"ca":"CATALUÑA","province":"TARRAGONA","locality":"Reus","postalCode":"43204","nutsCode":"ES514"},
    {"ca":"CATALUÑA","province":"TARRAGONA","locality":"Reus","postalCode":"43203","nutsCode":"ES514"},
    {"ca":"CATALUÑA","province":"TARRAGONA","locality":"Reus","postalCode":"43205","nutsCode":"ES514"},
    {"ca":"CATALUÑA","province":"TARRAGONA","locality":"Reus","postalCode":"43204","nutsCode":"ES514"},
    {"ca":"CATALUÑA","province":"TARRAGONA","locality":"Reus","postalCode":"43206","nutsCode":"ES514"},
    {"ca":"GALICIA","province":"A CORUÑA","locality":"Ribeira","postalCode":"15993","nutsCode":"ES111"},
    {"ca":"ANDALUCÍA","province":"MALAGA","locality":"Rincón de la Victoria","postalCode":"29730","nutsCode":"ES617"},
    {"ca":"CATALUÑA","province":"BARCELONA","locality":"Roca del Vallès, La","postalCode":"8430","nutsCode":"ES511"},
    {"ca":"ANDALUCÍA","province":"MALAGA","locality":"Ronda","postalCode":"29400","nutsCode":"ES617"},
    {"ca":"CATALUÑA","province":"BARCELONA","locality":"Sabadell","postalCode":"8208","nutsCode":"ES511"},
    {"ca":"CATALUÑA","province":"BARCELONA","locality":"Sabadell","postalCode":"8203","nutsCode":"ES511"},
    {"ca":"CATALUÑA","province":"BARCELONA","locality":"Sabadell","postalCode":"8202","nutsCode":"ES511"},
    {"ca":"ARAGÓN","province":"ZARAGOZA","locality":"Sádaba","postalCode":"50670","nutsCode":"ES243"},
    {"ca":"COMUNIDAD VALENCIANA","province":"VALENCIA","locality":"Sagunto/Sagunt","postalCode":"46520","nutsCode":"ES523"},
    {"ca":"CATALUÑA","province":"TARRAGONA","locality":"Salou","postalCode":"43840","nutsCode":"ES514"},
    {"ca":"CATALUÑA","province":"GIRONA","locality":"Salt","postalCode":"17190","nutsCode":"ES512"},
    {"ca":"CATALUÑA","province":"GIRONA","locality":"Salt","postalCode":"17190","nutsCode":"ES512"},
    {"ca":"CATALUÑA","province":"GIRONA","locality":"Salt","postalCode":"17190","nutsCode":"ES512"},
    {"ca":"CASTILLA Y LEÓN","province":"LEÓN","locality":"San Andrés del Rabanedo","postalCode":"24010","nutsCode":"ES413"},
    {"ca":"COMUNIDAD VALENCIANA","province":"VALENCIA","locality":"San Antonio de Benagéber","postalCode":"46184","nutsCode":"ES523"},
    {"ca":"CANARIAS","province":"LAS PALMAS","locality":"San Bartolomé de Tirajana","postalCode":"35100","nutsCode":"ES705"},
    {"ca":"CANARIAS","province":"LAS PALMAS","locality":"San Bartolomé de Tirajana","postalCode":"35100","nutsCode":"ES705"},
    {"ca":"CANARIAS","province":"SANTA CRUZ DE TENERIFE","locality":"San Cristóbal de La Laguna","postalCode":"38320","nutsCode":"ES709"},
    {"ca":"CANARIAS","province":"SANTA CRUZ DE TENERIFE","locality":"San Cristóbal de La Laguna","postalCode":"38320","nutsCode":"ES709"},
    {"ca":"ANDALUCÍA","province":"CÁDIZ","locality":"San Fernando","postalCode":"11110","nutsCode":"ES612"},
    {"ca":"REGIÓN DE MURCIA","province":"MURCIA","locality":"San Javier","postalCode":"30739","nutsCode":"ES620"},
    {"ca":"MADRID","province":"MADRID","locality":"San Lorenzo de El Escorial","postalCode":"28200","nutsCode":"ES300"},
    {"ca":"REGIÓN DE MURCIA","province":"MURCIA","locality":"San Pedro del Pinatar","postalCode":"30740","nutsCode":"ES620"},
    {"ca":"CANARIAS","province":"SANTA CRUZ DE TENERIFE","locality":"San Sebastián de la Gomera","postalCode":"38800","nutsCode":"ES706"},
    {"ca":"MADRID","province":"MADRID","locality":"San Sebastián de los Reyes","postalCode":"28702","nutsCode":"ES300"},
    {"ca":"COMUNIDAD VALENCIANA","province":"ALICANTE","locality":"San Vicente del Raspeig/Sant Vicent del Raspeig","postalCode":"3690","nutsCode":"ES521"},
    {"ca":"ANDALUCÍA","province":"CÁDIZ","locality":"Sanlúcar de Barrameda","postalCode":"11540","nutsCode":"ES612"},
    {"ca":"CATALUÑA","province":"BARCELONA","locality":"Sant Andreu de Llavaneres","postalCode":"8392","nutsCode":"ES511"},
    {"ca":"CATALUÑA","province":"BARCELONA","locality":"Sant Boi de Llobregat","postalCode":"8830","nutsCode":"ES511"},
    {"ca":"CATALUÑA","province":"BARCELONA","locality":"Sant Boi de Llobregat","postalCode":"8830","nutsCode":"ES511"},
    {"ca":"CATALUÑA","province":"BARCELONA","locality":"Sant Boi de Llobregat","postalCode":"8830","nutsCode":"ES511"},
    {"ca":"CATALUÑA","province":"BARCELONA","locality":"Sant Celoni","postalCode":"8470","nutsCode":"ES511"},
    {"ca":"CATALUÑA","province":"BARCELONA","locality":"Sant Celoni","postalCode":"8470","nutsCode":"ES511"},
    {"ca":"CATALUÑA","province":"BARCELONA","locality":"Sant Cugat del Vallès","postalCode":"8174","nutsCode":"ES511"},
    {"ca":"CATALUÑA","province":"BARCELONA","locality":"Sant Cugat del Vallès","postalCode":"8195","nutsCode":"ES511"},
    {"ca":"CATALUÑA","province":"BARCELONA","locality":"Sant Cugat del Vallès","postalCode":"8174","nutsCode":"ES511"},
    {"ca":"CATALUÑA","province":"BARCELONA","locality":"Sant Cugat del Vallès","postalCode":"8174","nutsCode":"ES511"},
    {"ca":"CATALUÑA","province":"BARCELONA","locality":"Sant Esteve Sesrovires","postalCode":"8635","nutsCode":"ES511"},
    {"ca":"CATALUÑA","province":"BARCELONA","locality":"Sant Esteve Sesrovires","postalCode":"8635","nutsCode":"ES511"},
    {"ca":"COMUNIDAD VALENCIANA","province":"ALICANTE","locality":"Sant Joan d'Alacant","postalCode":"3550","nutsCode":"ES521"},
    {"ca":"CATALUÑA","province":"BARCELONA","locality":"Sant Joan de Vilatorrada","postalCode":"8250","nutsCode":"ES511"},
    {"ca":"CATALUÑA","province":"BARCELONA","locality":"Sant Joan Despí","postalCode":"8970","nutsCode":"ES511"},
    {"ca":"CATALUÑA","province":"BARCELONA","locality":"Sant Pere de Ribes","postalCode":"8810","nutsCode":"ES511"},
    {"ca":"CANARIAS","province":"LAS PALMAS","locality":"Santa Brígida","postalCode":"35300","nutsCode":"ES705"},
    {"ca":"CATALUÑA","province":"BARCELONA","locality":"Santa Coloma de Gramenet","postalCode":"8923","nutsCode":"ES511"},
    {"ca":"CATALUÑA","province":"BARCELONA","locality":"Santa Coloma de Gramenet","postalCode":"8921","nutsCode":"ES511"},
    {"ca":"CANTABRIA","province":"CANTABRIA","locality":"Santa Cruz de Bezana","postalCode":"39108","nutsCode":"ES130"},
    {"ca":"CANARIAS","province":"SANTA CRUZ DE TENERIFE","locality":"Santa Cruz de la Palma","postalCode":"38700","nutsCode":"ES707"},
    {"ca":"CANARIAS","province":"SANTA CRUZ DE TENERIFE","locality":"Santa Cruz de Tenerife","postalCode":"38006","nutsCode":"ES709"},
    {"ca":"CANARIAS","province":"LAS PALMAS","locality":"Santa María de Guía de Gran Canaria","postalCode":"35450","nutsCode":"ES705"},
    {"ca":"CATALUÑA","province":"TARRAGONA","locality":"Santa Oliva","postalCode":"43710","nutsCode":"ES511"},
    {"ca":"GALICIA","province":"A CORUÑA","locality":"Santiago de Compostela","postalCode":"15701","nutsCode":"ES111"},
    {"ca":"GALICIA","province":"A CORUÑA","locality":"Santiago de Compostela","postalCode":"15705","nutsCode":"ES111"},
    {"ca":"GALICIA","province":"A CORUÑA","locality":"Santiago de Compostela","postalCode":"15701","nutsCode":"ES111"},
    {"ca":"GALICIA","province":"A CORUÑA","locality":"Santiago de Compostela","postalCode":"15706","nutsCode":"ES111"},
    {"ca":"GALICIA","province":"A CORUÑA","locality":"Santiago de Compostela","postalCode":"15706","nutsCode":"ES111"},
    {"ca":"GALICIA","province":"A CORUÑA","locality":"Santiago de Compostela","postalCode":"15706","nutsCode":"ES111"},
    {"ca":"GALICIA","province":"A CORUÑA","locality":"Santiago de Compostela","postalCode":"15706","nutsCode":"ES111"},
    {"ca":"GALICIA","province":"A CORUÑA","locality":"Santiago de Compostela","postalCode":"15706","nutsCode":"ES111"},
    {"ca":"PAÍS VASCO","province":"VIZCAYA","locality":"Santurtzi","postalCode":"48980","nutsCode":"ES213"},
    {"ca":"PAÍS VASCO","province":"VIZCAYA","locality":"Santurtzi","postalCode":"48980","nutsCode":"ES213"},
    {"ca":"COMUNIDAD VALENCIANA","province":"VALENCIA","locality":"Serra","postalCode":"46118","nutsCode":"ES523"},
    {"ca":"CATALUÑA","province":"LLEIDA","locality":"Seu d'Urgell, La","postalCode":"25700","nutsCode":"ES513"},
    {"ca":"CATALUÑA","province":"LLEIDA","locality":"Solsona","postalCode":"25280","nutsCode":"ES513"},
    {"ca":"CANARIAS","province":"SANTA CRUZ DE TENERIFE","locality":"Tacoronte","postalCode":"38350","nutsCode":"ES709"},
    {"ca":"EXTREMADURA","province":"BADAJOZ","locality":"Talarrubias","postalCode":"6640","nutsCode":"ES431"},
    {"ca":"CASTILLA-LA MANCHA","province":"TOLEDO","locality":"Talavera de la Reina","postalCode":"45600","nutsCode":"ES425"},
    {"ca":"CASTILLA-LA MANCHA","province":"TOLEDO","locality":"Talavera de la Reina","postalCode":"45600","nutsCode":"ES425"},
    {"ca":"CANARIAS","province":"LAS PALMAS","locality":"Teguise","postalCode":"35508","nutsCode":"ES708"},
    {"ca":"CANARIAS","province":"LAS PALMAS","locality":"Telde","postalCode":"35212","nutsCode":"ES705"},
    {"ca":"CATALUÑA","province":"BARCELONA","locality":"Terrassa","postalCode":"8227","nutsCode":"ES511"},
    {"ca":"CATALUÑA","province":"BARCELONA","locality":"Terrassa","postalCode":"8221","nutsCode":"ES511"},
    {"ca":"CATALUÑA","province":"BARCELONA","locality":"Terrassa","postalCode":"8221","nutsCode":"ES511"},
    {"ca":"CATALUÑA","province":"BARCELONA","locality":"Terrassa","postalCode":"8221","nutsCode":"ES511"},
    {"ca":"CATALUÑA","province":"BARCELONA","locality":"Terrassa","postalCode":"8227","nutsCode":"ES511"},
    {"ca":"CATALUÑA","province":"BARCELONA","locality":"Terrassa","postalCode":"8221","nutsCode":"ES511"},
    {"ca":"CANARIAS","province":"LAS PALMAS","locality":"Tías","postalCode":"35510","nutsCode":"ES708"},
    {"ca":"PAÍS VASCO","province":"GUIPÚZCOA","locality":"Tolosa","postalCode":"20400","nutsCode":"ES212"},
    {"ca":"CASTILLA-LA MANCHA","province":"CIUDAD REAL","locality":"Tomelloso","postalCode":"13700","nutsCode":"ES422"},
    {"ca":"MADRID","province":"MADRID","locality":"Torrejón de Ardoz","postalCode":"28850","nutsCode":"ES300"},
    {"ca":"CANTABRIA","province":"CANTABRIA","locality":"Torrelavega","postalCode":"39300","nutsCode":"ES130"},
    {"ca":"MADRID","province":"MADRID","locality":"Torrelodones","postalCode":"28250","nutsCode":"ES300"},
    {"ca":"ANDALUCÍA","province":"MALAGA","locality":"Torremolinos","postalCode":"29620","nutsCode":"ES617"},
    {"ca":"ANDALUCÍA","province":"MALAGA","locality":"Torremolinos","postalCode":"29620","nutsCode":"ES617"},
    {"ca":"COMUNIDAD VALENCIANA","province":"ALICANTE","locality":"Torrevieja","postalCode":"3184","nutsCode":"ES521"},
    {"ca":"COMUNIDAD VALENCIANA","province":"ALICANTE","locality":"Torrevieja","postalCode":"3186","nutsCode":"ES521"},
    {"ca":"CATALUÑA","province":"TARRAGONA","locality":"Tortosa","postalCode":"43500","nutsCode":"ES514"},
    {"ca":"CATALUÑA","province":"TARRAGONA","locality":"Tortosa","postalCode":"43590","nutsCode":"ES514"},
    {"ca":"CATALUÑA","province":"TARRAGONA","locality":"Tortosa","postalCode":"43500","nutsCode":"ES514"},
    {"ca":"CATALUÑA","province":"LLEIDA","locality":"Tremp","postalCode":"25620","nutsCode":"ES513"},
    {"ca":"C. FORAL DE NAVARRA","province":"NAVARRA","locality":"Tudela","postalCode":"31500","nutsCode":"ES220"},
    {"ca":"ANDALUCÍA","province":"JAÉN","locality":"Úbeda","postalCode":"23400","nutsCode":"ES616"},
    {"ca":"PAÍS VASCO","province":"VIZCAYA","locality":"Urduliz","postalCode":"48610","nutsCode":"ES213"},
    {"ca":"PAÍS VASCO","province":"GUIPÚZCOA","locality":"Usurbil","postalCode":"20170","nutsCode":"ES212"},
    {"ca":"ANDALUCÍA","province":"SEVILLA","locality":"Utrera","postalCode":"41710","nutsCode":"ES618"},
    {"ca":"MADRID","province":"MADRID","locality":"Valdemoro","postalCode":"28342","nutsCode":"ES300"},
    {"ca":"CASTILLA-LA MANCHA","province":"CIUDAD REAL","locality":"Valdepeñas","postalCode":"13300","nutsCode":"ES422"},
    {"ca":"PPDO. DE ASTURIAS","province":"ASTURIAS","locality":"Valdés","postalCode":"33700","nutsCode":"ES120"},
    {"ca":"COMUNIDAD VALENCIANA","province":"ALICANTE","locality":"Vall de Laguar, la","postalCode":"3791","nutsCode":"ES521"},
    {"ca":"CATALUÑA","province":"TARRAGONA","locality":"Valls","postalCode":"43800","nutsCode":"ES514"},
    {"ca":"CATALUÑA","province":"TARRAGONA","locality":"Valls","postalCode":"43800","nutsCode":"ES514"},
    {"ca":"CANARIAS","province":"SANTA CRUZ DE TENERIFE","locality":"Valverde","postalCode":"38900","nutsCode":"ES703"},
    {"ca":"ANDALUCÍA","province":"MALAGA","locality":"Vélez-Málaga","postalCode":"29700","nutsCode":"ES617"},
    {"ca":"ANDALUCÍA","province":"MALAGA","locality":"Vélez-Málaga","postalCode":"29790","nutsCode":"ES617"},
    {"ca":"CATALUÑA","province":"TARRAGONA","locality":"Vendrell, El","postalCode":"43700","nutsCode":"ES514"},
    {"ca":"GALICIA","province":"OURENSE","locality":"Verín","postalCode":"32600","nutsCode":"ES113"},
    {"ca":"CATALUÑA","province":"BARCELONA","locality":"Vic","postalCode":"8500","nutsCode":"ES511"},
    {"ca":"CATALUÑA","province":"BARCELONA","locality":"Vic","postalCode":"8500","nutsCode":"ES511"},
    {"ca":"CATALUÑA","province":"BARCELONA","locality":"Vic","postalCode":"8500","nutsCode":"ES511"},
    {"ca":"CATALUÑA","province":"LLEIDA","locality":"Vielha e Mijaran","postalCode":"25530","nutsCode":"ES513"},
    {"ca":"GALICIA","province":"PONTEVEDRA","locality":"Vigo","postalCode":"36206","nutsCode":"ES114"},
    {"ca":"GALICIA","province":"PONTEVEDRA","locality":"Vigo","postalCode":"36204","nutsCode":"ES114"},
    {"ca":"GALICIA","province":"PONTEVEDRA","locality":"Vigo","postalCode":"36203","nutsCode":"ES114"},
    {"ca":"GALICIA","province":"PONTEVEDRA","locality":"Vigo","postalCode":"36208","nutsCode":"ES114"},
    {"ca":"GALICIA","province":"PONTEVEDRA","locality":"Vigo","postalCode":"36203","nutsCode":"ES114"},
    {"ca":"GALICIA","province":"PONTEVEDRA","locality":"Vigo","postalCode":"36312","nutsCode":"ES114"},
    {"ca":"GALICIA","province":"PONTEVEDRA","locality":"Vigo","postalCode":"36200","nutsCode":""},
    {"ca":"GALICIA","province":"PONTEVEDRA","locality":"Vigo","postalCode":"36211","nutsCode":"ES114"},
    {"ca":"GALICIA","province":"PONTEVEDRA","locality":"Vigo","postalCode":"36211","nutsCode":"ES114"},
    {"ca":"GALICIA","province":"PONTEVEDRA","locality":"Vigo","postalCode":"36203","nutsCode":"ES114"},
    {"ca":"GALICIA","province":"PONTEVEDRA","locality":"Vigo","postalCode":"36214","nutsCode":"ES114"},
    {"ca":"GALICIA","province":"PONTEVEDRA","locality":"Vigo","postalCode":"36312","nutsCode":"ES114"},
    {"ca":"CATALUÑA","province":"BARCELONA","locality":"Viladecans","postalCode":"8840","nutsCode":"ES511"},
    {"ca":"CATALUÑA","province":"BARCELONA","locality":"Viladecans","postalCode":"8840","nutsCode":"ES511"},
    {"ca":"CATALUÑA","province":"BARCELONA","locality":"Vilafranca del Penedès","postalCode":"8720","nutsCode":"ES511"},
    {"ca":"CATALUÑA","province":"BARCELONA","locality":"Vilafranca del Penedès","postalCode":"8720","nutsCode":"ES511"},
    {"ca":"GALICIA","province":"PONTEVEDRA","locality":"Vilagarcía de Arousa","postalCode":"36619","nutsCode":"ES114"},
    {"ca":"CATALUÑA","province":"BARCELONA","locality":"Vilanova i la Geltrú","postalCode":"8800","nutsCode":"ES511"},
    {"ca":"COMUNIDAD VALENCIANA","province":"CASTELLÓN","locality":"Vila-real","postalCode":"12540","nutsCode":"ES522"},
    {"ca":"CATALUÑA","province":"TARRAGONA","locality":"Vila-seca","postalCode":"43480","nutsCode":"ES514"},
    {"ca":"CATALUÑA","province":"BARCELONA","locality":"Vilassar de Mar","postalCode":"8340","nutsCode":"ES511"},
    {"ca":"MADRID","province":"MADRID","locality":"Villa del Prado","postalCode":"28630","nutsCode":"ES300"},
    {"ca":"CASTILLA Y LEÓN","province":"LEÓN","locality":"Villablino","postalCode":"24100","nutsCode":"ES413"},
    {"ca":"COMUNIDAD VALENCIANA","province":"ALICANTE","locality":"Villajoyosa/Vila Joiosa, la","postalCode":"3570","nutsCode":"ES521"},
    {"ca":"ANDALUCÍA","province":"CÁDIZ","locality":"Villamartín","postalCode":"11650","nutsCode":"ES612"},
    {"ca":"EXTREMADURA","province":"BADAJOZ","locality":"Villanueva de la Serena","postalCode":"6700","nutsCode":"ES431"},
    {"ca":"CASTILLA Y LEÓN","province":"LEÓN","locality":"Villaquilambre","postalCode":"24193","nutsCode":"ES413"},
    {"ca":"CASTILLA-LA MANCHA","province":"ALBACETE","locality":"Villarrobledo","postalCode":"2600","nutsCode":"ES421"},
    {"ca":"COMUNIDAD VALENCIANA","province":"CASTELLÓN","locality":"Vinaròs","postalCode":"12500","nutsCode":"ES522"},
    {"ca":"COMUNIDAD VALENCIANA","province":"VALENCIA","locality":"Xàtiva","postalCode":"46800","nutsCode":"ES523"},
    {"ca":"CASTILLA-LA MANCHA","province":"GUADALAJARA","locality":"Yebes","postalCode":"19141","nutsCode":"ES424"},
    {"ca":"REGIÓN DE MURCIA","province":"MURCIA","locality":"Yecla","postalCode":"30510","nutsCode":"ES620"},
    {"ca":"EXTREMADURA","province":"BADAJOZ","locality":"Zafra","postalCode":"6300","nutsCode":"ES431"},
    {"ca":"EXTREMADURA","province":"BADAJOZ","locality":"Zafra","postalCode":"6300","nutsCode":"ES431"},
    {"ca":"PAÍS VASCO","province":"VIZCAYA","locality":"Zaldibar","postalCode":"48250","nutsCode":"ES213"},
    {"ca":"PAÍS VASCO","province":"VIZCAYA","locality":"Zamudio","postalCode":"48170","nutsCode":"ES213"},
    {"ca":"PAÍS VASCO","province":"GUIPÚZCOA","locality":"Zumarraga","postalCode":"20700","nutsCode":"ES212"},
    {"ca":"CASTILLA-LA MANCHA","province":"ALBACETE","locality":"Albacete","postalCode":"2006","nutsCode":"ES421"},
    {"ca":"CASTILLA-LA MANCHA","province":"ALBACETE","locality":"Albacete","postalCode":"2006","nutsCode":"ES421"},
    {"ca":"CASTILLA-LA MANCHA","province":"ALBACETE","locality":"Albacete","postalCode":"2008","nutsCode":"ES421"},
    {"ca":"CASTILLA-LA MANCHA","province":"ALBACETE","locality":"Albacete","postalCode":"2003","nutsCode":"ES421"},
    {"ca":"CASTILLA-LA MANCHA","province":"ALBACETE","locality":"Albacete","postalCode":"2006","nutsCode":"ES421"},
    {"ca":"CASTILLA-LA MANCHA","province":"ALBACETE","locality":"Albacete","postalCode":"2006","nutsCode":"ES421"},
    {"ca":"COMUNIDAD VALENCIANA","province":"ALICANTE","locality":"Alicante/Alacant","postalCode":"3010","nutsCode":"ES521"},
    {"ca":"COMUNIDAD VALENCIANA","province":"ALICANTE","locality":"Alicante/Alacant","postalCode":"3015","nutsCode":"ES521"},
    {"ca":"COMUNIDAD VALENCIANA","province":"ALICANTE","locality":"Alicante/Alacant","postalCode":"3013","nutsCode":"ES521"},
    {"ca":"COMUNIDAD VALENCIANA","province":"ALICANTE","locality":"Alicante/Alacant","postalCode":"3016","nutsCode":"ES521"},
    {"ca":"COMUNIDAD VALENCIANA","province":"ALICANTE","locality":"Alicante/Alacant","postalCode":"3503","nutsCode":"ES521"},
    {"ca":"COMUNIDAD VALENCIANA","province":"ALICANTE","locality":"Alicante/Alacant","postalCode":"3113","nutsCode":"ES521"},
    {"ca":"ANDALUCÍA","province":"ALMERÍA","locality":"Almería","postalCode":"4008","nutsCode":"ES611"},
    {"ca":"ANDALUCÍA","province":"ALMERÍA","locality":"Almería","postalCode":"4009","nutsCode":"ES611"},
    {"ca":"ANDALUCÍA","province":"ALMERÍA","locality":"Almería","postalCode":"4009","nutsCode":"ES611"},
    {"ca":"ANDALUCÍA","province":"ALMERÍA","locality":"Almería","postalCode":"4131","nutsCode":"ES611"},
    {"ca":"ANDALUCÍA","province":"ALMERÍA","locality":"Almería","postalCode":"4007","nutsCode":"ES611"},
    {"ca":"CASTILLA Y LEÓN","province":"ÁVILA","locality":"Ávila","postalCode":"5003","nutsCode":"ES411"},
    {"ca":"CASTILLA Y LEÓN","province":"ÁVILA","locality":"Ávila","postalCode":"5005","nutsCode":"ES411"},
    {"ca":"CASTILLA Y LEÓN","province":"ÁVILA","locality":"Ávila","postalCode":"5071","nutsCode":"ES411"},
    {"ca":"CASTILLA Y LEÓN","province":"ÁVILA","locality":"Ávila","postalCode":"5071","nutsCode":"ES411"},
    {"ca":"EXTREMADURA","province":"BADAJOZ","locality":"Badajoz","postalCode":"6080","nutsCode":"ES431"},
    {"ca":"EXTREMADURA","province":"BADAJOZ","locality":"Badajoz","postalCode":"6080","nutsCode":"ES431"},
    {"ca":"EXTREMADURA","province":"BADAJOZ","locality":"Badajoz","postalCode":"6010","nutsCode":"ES431"},
    {"ca":"EXTREMADURA","province":"BADAJOZ","locality":"Badajoz","postalCode":"6011","nutsCode":"ES431"},
    {"ca":"EXTREMADURA","province":"BADAJOZ","locality":"Badajoz","postalCode":"6006","nutsCode":"ES431"},
    {"ca":"EXTREMADURA","province":"BADAJOZ","locality":"Badajoz","postalCode":"6010","nutsCode":"ES431"},
    {"ca":"CATALUÑA","province":"BARCELONA","locality":"Barcelona","postalCode":"8035","nutsCode":"ES511"},
    {"ca":"CATALUÑA","province":"BARCELONA","locality":"Barcelona","postalCode":"8006","nutsCode":"ES511"},
    {"ca":"CATALUÑA","province":"BARCELONA","locality":"Barcelona","postalCode":"8030","nutsCode":"ES511"},
    {"ca":"CATALUÑA","province":"BARCELONA","locality":"Barcelona","postalCode":"8023","nutsCode":"ES511"},
    {"ca":"CATALUÑA","province":"BARCELONA","locality":"Barcelona","postalCode":"8023","nutsCode":"ES511"},
    {"ca":"CATALUÑA","province":"BARCELONA","locality":"Barcelona","postalCode":"8017","nutsCode":"ES511"},
    {"ca":"CATALUÑA","province":"BARCELONA","locality":"Barcelona","postalCode":"8017","nutsCode":"ES511"},
    {"ca":"CATALUÑA","province":"BARCELONA","locality":"Barcelona","postalCode":"8029","nutsCode":"ES511"},
    {"ca":"CATALUÑA","province":"BARCELONA","locality":"Barcelona","postalCode":"8025","nutsCode":"ES511"},
    {"ca":"CATALUÑA","province":"BARCELONA","locality":"Barcelona","postalCode":"8025","nutsCode":"ES511"},
    {"ca":"CATALUÑA","province":"BARCELONA","locality":"Barcelona","postalCode":"8009","nutsCode":"ES511"},
    {"ca":"CATALUÑA","province":"BARCELONA","locality":"Barcelona","postalCode":"8024","nutsCode":"ES511"},
    {"ca":"CATALUÑA","province":"BARCELONA","locality":"Barcelona","postalCode":"8041","nutsCode":"ES511"},
    {"ca":"CATALUÑA","province":"BARCELONA","locality":"Barcelona","postalCode":"8028","nutsCode":"ES511"},
    {"ca":"CATALUÑA","province":"BARCELONA","locality":"Barcelona","postalCode":"8034","nutsCode":"ES511"},
    {"ca":"CATALUÑA","province":"BARCELONA","locality":"Barcelona","postalCode":"8030","nutsCode":"ES511"},
    {"ca":"CATALUÑA","province":"BARCELONA","locality":"Barcelona","postalCode":"8022","nutsCode":"ES511"},
    {"ca":"CATALUÑA","province":"BARCELONA","locality":"Barcelona","postalCode":"8021","nutsCode":"ES511"},
    {"ca":"CATALUÑA","province":"BARCELONA","locality":"Barcelona","postalCode":"8006","nutsCode":"ES511"},
    {"ca":"CATALUÑA","province":"BARCELONA","locality":"Barcelona","postalCode":"8034","nutsCode":"ES511"},
    {"ca":"CATALUÑA","province":"BARCELONA","locality":"Barcelona","postalCode":"8022","nutsCode":"ES511"},
    {"ca":"CATALUÑA","province":"BARCELONA","locality":"Barcelona","postalCode":"8028","nutsCode":"ES511"},
    {"ca":"CATALUÑA","province":"BARCELONA","locality":"Barcelona","postalCode":"8023","nutsCode":"ES511"},
    {"ca":"CATALUÑA","province":"BARCELONA","locality":"Barcelona","postalCode":"8019","nutsCode":"ES511"},
    {"ca":"CATALUÑA","province":"BARCELONA","locality":"Barcelona","postalCode":"8018","nutsCode":"ES511"},
    {"ca":"CATALUÑA","province":"BARCELONA","locality":"Barcelona","postalCode":"8024","nutsCode":"ES511"},
    {"ca":"CATALUÑA","province":"BARCELONA","locality":"Barcelona","postalCode":"8034","nutsCode":"ES511"},
    {"ca":"CATALUÑA","province":"BARCELONA","locality":"Barcelona","postalCode":"8024","nutsCode":"ES511"},
    {"ca":"CATALUÑA","province":"BARCELONA","locality":"Barcelona","postalCode":"8035","nutsCode":"ES511"},
    {"ca":"CATALUÑA","province":"BARCELONA","locality":"Barcelona","postalCode":"8034","nutsCode":"ES511"},
    {"ca":"CATALUÑA","province":"BARCELONA","locality":"Barcelona","postalCode":"8023","nutsCode":"ES511"},
    {"ca":"CATALUÑA","province":"BARCELONA","locality":"Barcelona","postalCode":"8017","nutsCode":"ES511"},
    {"ca":"CATALUÑA","province":"BARCELONA","locality":"Barcelona","postalCode":"8022","nutsCode":"ES511"},
    {"ca":"CATALUÑA","province":"BARCELONA","locality":"Barcelona","postalCode":"8006","nutsCode":"ES511"},
    {"ca":"CATALUÑA","province":"BARCELONA","locality":"Barcelona","postalCode":"8035","nutsCode":"ES511"},
    {"ca":"CATALUÑA","province":"BARCELONA","locality":"Barcelona","postalCode":"8025","nutsCode":"ES511"},
    {"ca":"CATALUÑA","province":"BARCELONA","locality":"Barcelona","postalCode":"8025","nutsCode":"ES511"},
    {"ca":"CATALUÑA","province":"BARCELONA","locality":"Barcelona","postalCode":"8042","nutsCode":"ES511"},
    {"ca":"CATALUÑA","province":"BARCELONA","locality":"Barcelona","postalCode":"8029","nutsCode":"ES511"},
    {"ca":"CATALUÑA","province":"BARCELONA","locality":"Barcelona","postalCode":"8035","nutsCode":"ES511"},
    {"ca":"CATALUÑA","province":"BARCELONA","locality":"Barcelona","postalCode":"8038","nutsCode":"ES511"},
    {"ca":"CATALUÑA","province":"BARCELONA","locality":"Barcelona","postalCode":"8016","nutsCode":"ES511"},
    {"ca":"CATALUÑA","province":"BARCELONA","locality":"Barcelona","postalCode":"8030","nutsCode":"ES511"},
    {"ca":"CATALUÑA","province":"BARCELONA","locality":"Barcelona","postalCode":"8017","nutsCode":"ES511"},
    {"ca":"CATALUÑA","province":"BARCELONA","locality":"Barcelona","postalCode":"8035","nutsCode":"ES511"},
    {"ca":"CATALUÑA","province":"BARCELONA","locality":"Barcelona","postalCode":"8042","nutsCode":"ES511"},
    {"ca":"CATALUÑA","province":"BARCELONA","locality":"Barcelona","postalCode":"8022","nutsCode":"ES511"},
    {"ca":"CATALUÑA","province":"BARCELONA","locality":"Barcelona","postalCode":"8024","nutsCode":"ES511"},
    {"ca":"CATALUÑA","province":"BARCELONA","locality":"Barcelona","postalCode":"8035","nutsCode":"ES511"},
    {"ca":"CATALUÑA","province":"BARCELONA","locality":"Barcelona","postalCode":"8006","nutsCode":"ES511"},
    {"ca":"CATALUÑA","province":"BARCELONA","locality":"Barcelona","postalCode":"8025","nutsCode":"ES511"},
    {"ca":"CATALUÑA","province":"BARCELONA","locality":"Barcelona","postalCode":"8022","nutsCode":"ES511"},
    {"ca":"CATALUÑA","province":"BARCELONA","locality":"Barcelona","postalCode":"8006","nutsCode":"ES511"},
    {"ca":"CATALUÑA","province":"BARCELONA","locality":"Barcelona","postalCode":"8006","nutsCode":"ES511"},
    {"ca":"CATALUÑA","province":"BARCELONA","locality":"Barcelona","postalCode":"8036","nutsCode":"ES511"},
    {"ca":"CATALUÑA","province":"BARCELONA","locality":"Barcelona","postalCode":"8035","nutsCode":"ES511"},
    {"ca":"CATALUÑA","province":"BARCELONA","locality":"Barcelona","postalCode":"8024","nutsCode":"ES511"},
    {"ca":"CATALUÑA","province":"BARCELONA","locality":"Barcelona","postalCode":"8024","nutsCode":"ES511"},
    {"ca":"CATALUÑA","province":"BARCELONA","locality":"Barcelona","postalCode":"8003","nutsCode":"ES511"},
    {"ca":"CATALUÑA","province":"BARCELONA","locality":"Barcelona","postalCode":"8029","nutsCode":"ES511"},
    {"ca":"CATALUÑA","province":"BARCELONA","locality":"Barcelona","postalCode":"8008","nutsCode":"ES511"},
    {"ca":"CATALUÑA","province":"BARCELONA","locality":"Barcelona","postalCode":"8023","nutsCode":"ES511"},
    {"ca":"CATALUÑA","province":"BARCELONA","locality":"Barcelona","postalCode":"8024","nutsCode":"ES511"},
    {"ca":"PAÍS VASCO","province":"VIZCAYA","locality":"Bilbao","postalCode":"48010","nutsCode":"ES213"},
    {"ca":"PAÍS VASCO","province":"VIZCAYA","locality":"Bilbao","postalCode":"48007","nutsCode":"ES213"},
    {"ca":"PAÍS VASCO","province":"VIZCAYA","locality":"Bilbao","postalCode":"48009","nutsCode":"ES213"},
    {"ca":"PAÍS VASCO","province":"VIZCAYA","locality":"Bilbao","postalCode":"48013","nutsCode":"ES213"},
    {"ca":"PAÍS VASCO","province":"VIZCAYA","locality":"Bilbao","postalCode":"48010","nutsCode":"ES213"},
    {"ca":"PAÍS VASCO","province":"VIZCAYA","locality":"Bilbao","postalCode":"48014","nutsCode":"ES213"},
    {"ca":"PAÍS VASCO","province":"VIZCAYA","locality":"Bilbao","postalCode":"48010","nutsCode":"ES213"},
    {"ca":"PAÍS VASCO","province":"VIZCAYA","locality":"Bilbao","postalCode":"48004","nutsCode":"ES213"},
    {"ca":"PAÍS VASCO","province":"VIZCAYA","locality":"Bilbao","postalCode":"48006","nutsCode":"ES213"},
    {"ca":"PAÍS VASCO","province":"VIZCAYA","locality":"Bilbao","postalCode":"48013","nutsCode":"ES213"},
    {"ca":"CASTILLA Y LEÓN","province":"BURGOS","locality":"Burgos","postalCode":"9003","nutsCode":"ES412"},
    {"ca":"CASTILLA Y LEÓN","province":"BURGOS","locality":"Burgos","postalCode":"9006","nutsCode":"ES412"},
    {"ca":"CASTILLA Y LEÓN","province":"BURGOS","locality":"Burgos","postalCode":"9003","nutsCode":"ES412"},
    {"ca":"CASTILLA Y LEÓN","province":"BURGOS","locality":"Burgos","postalCode":"9006","nutsCode":"ES412"},
    {"ca":"CASTILLA Y LEÓN","province":"BURGOS","locality":"Burgos","postalCode":"9006","nutsCode":"ES412"},
    {"ca":"EXTREMADURA","province":"CÁCERES","locality":"Cáceres","postalCode":"10003","nutsCode":"ES432"},
    {"ca":"EXTREMADURA","province":"CÁCERES","locality":"Cáceres","postalCode":"10004","nutsCode":"ES432"},
    {"ca":"EXTREMADURA","province":"CÁCERES","locality":"Cáceres","postalCode":"10002","nutsCode":"ES432"},
    {"ca":"ANDALUCÍA","province":"CÁDIZ","locality":"Cádiz","postalCode":"11002","nutsCode":"ES612"},
    {"ca":"ANDALUCÍA","province":"CÁDIZ","locality":"Cádiz","postalCode":"11001","nutsCode":"ES612"},
    {"ca":"ANDALUCÍA","province":"CÁDIZ","locality":"Cádiz","postalCode":"11009","nutsCode":"ES612"},
    {"ca":"COMUNIDAD VALENCIANA","province":"CASTELLÓN","locality":"Castellón de la Plana/Castelló de la Plana","postalCode":"12004","nutsCode":"ES522"},
    {"ca":"COMUNIDAD VALENCIANA","province":"CASTELLÓN","locality":"Castellón de la Plana/Castelló de la Plana","postalCode":"12004","nutsCode":"ES522"},
    {"ca":"COMUNIDAD VALENCIANA","province":"CASTELLÓN","locality":"Castellón de la Plana/Castelló de la Plana","postalCode":"12002","nutsCode":"ES522"},
    {"ca":"COMUNIDAD VALENCIANA","province":"CASTELLÓN","locality":"Castellón de la Plana/Castelló de la Plana","postalCode":"12004","nutsCode":"ES522"},
    {"ca":"COMUNIDAD VALENCIANA","province":"CASTELLÓN","locality":"Castellón de la Plana/Castelló de la Plana","postalCode":"12004","nutsCode":"ES522"},
    {"ca":"CEUTA","province":"CEUTA","locality":"Ceuta","postalCode":"51003","nutsCode":"ES630"},
    {"ca":"CASTILLA-LA MANCHA","province":"CIUDAD REAL","locality":"Ciudad Real","postalCode":"13002","nutsCode":"ES422"},
    {"ca":"CASTILLA-LA MANCHA","province":"CIUDAD REAL","locality":"Ciudad Real","postalCode":"13002","nutsCode":"ES422"},
    {"ca":"CASTILLA-LA MANCHA","province":"CIUDAD REAL","locality":"Ciudad Real","postalCode":"13005","nutsCode":"ES422"},
    {"ca":"ANDALUCÍA","province":"CÓRDOBA","locality":"Córdoba","postalCode":"14004","nutsCode":"ES613"},
    {"ca":"ANDALUCÍA","province":"CÓRDOBA","locality":"Córdoba","postalCode":"14004","nutsCode":"ES613"},
    {"ca":"ANDALUCÍA","province":"CÓRDOBA","locality":"Córdoba","postalCode":"14004","nutsCode":"ES613"},
    {"ca":"ANDALUCÍA","province":"CÓRDOBA","locality":"Córdoba","postalCode":"14012","nutsCode":"ES613"},
    {"ca":"ANDALUCÍA","province":"CÓRDOBA","locality":"Córdoba","postalCode":"14002","nutsCode":"ES613"},
    {"ca":"ANDALUCÍA","province":"CÓRDOBA","locality":"Córdoba","postalCode":"14004","nutsCode":"ES613"},
    {"ca":"ANDALUCÍA","province":"CÓRDOBA","locality":"Córdoba","postalCode":"14004","nutsCode":"ES613"},
    {"ca":"ANDALUCÍA","province":"CÓRDOBA","locality":"Córdoba","postalCode":"14012","nutsCode":"ES613"},
    {"ca":"ANDALUCÍA","province":"CÓRDOBA","locality":"Córdoba","postalCode":"14004","nutsCode":"ES613"},
    {"ca":"GALICIA","province":"A CORUÑA","locality":"Coruña, A","postalCode":"15006","nutsCode":"ES113"},
    {"ca":"GALICIA","province":"A CORUÑA","locality":"Coruña, A","postalCode":"15006","nutsCode":"ES113"},
    {"ca":"GALICIA","province":"A CORUÑA","locality":"Coruña, A","postalCode":"15006","nutsCode":"ES113"},
    {"ca":"GALICIA","province":"A CORUÑA","locality":"Coruña, A","postalCode":"15006","nutsCode":"ES113"},
    {"ca":"GALICIA","province":"A CORUÑA","locality":"Coruña, A","postalCode":"15009","nutsCode":"ES113"},
    {"ca":"GALICIA","province":"A CORUÑA","locality":"Coruña, A","postalCode":"15009","nutsCode":"ES113"},
    {"ca":"GALICIA","province":"A CORUÑA","locality":"Coruña, A","postalCode":"15006","nutsCode":"ES113"},
    {"ca":"GALICIA","province":"A CORUÑA","locality":"Coruña, A","postalCode":"15011","nutsCode":"ES113"},
    {"ca":"GALICIA","province":"A CORUÑA","locality":"Coruña, A","postalCode":"15011","nutsCode":"ES113"},
    {"ca":"GALICIA","province":"A CORUÑA","locality":"Coruña, A","postalCode":"15001","nutsCode":"ES113"},
    {"ca":"GALICIA","province":"A CORUÑA","locality":"Coruña, A","postalCode":"15011","nutsCode":"ES113"},
    {"ca":"CASTILLA-LA MANCHA","province":"CUENCA","locality":"Cuenca","postalCode":"16003","nutsCode":"ES423"},
    {"ca":"CASTILLA-LA MANCHA","province":"CUENCA","locality":"Cuenca","postalCode":"16002","nutsCode":"ES423"},
    {"ca":"PAÍS VASCO","province":"GUIPÚZCOA","locality":"Donostia/San Sebastián","postalCode":"20014","nutsCode":"ES212"},
    {"ca":"PAÍS VASCO","province":"GUIPÚZCOA","locality":"Donostia/San Sebastián","postalCode":"20018","nutsCode":"ES212"},
    {"ca":"PAÍS VASCO","province":"GUIPÚZCOA","locality":"Donostia/San Sebastián","postalCode":"20018","nutsCode":"ES212"},
    {"ca":"PAÍS VASCO","province":"GUIPÚZCOA","locality":"Donostia/San Sebastián","postalCode":"20014","nutsCode":"ES212"},
    {"ca":"PAÍS VASCO","province":"GUIPÚZCOA","locality":"Donostia/San Sebastián","postalCode":"20012","nutsCode":"ES212"},
    {"ca":"PAÍS VASCO","province":"GUIPÚZCOA","locality":"Donostia/San Sebastián","postalCode":"20009","nutsCode":"ES212"},
    {"ca":"PAÍS VASCO","province":"GUIPÚZCOA","locality":"Donostia/San Sebastián","postalCode":"20014","nutsCode":"ES212"},
    {"ca":"CATALUÑA","province":"GIRONA","locality":"Girona","postalCode":"17002","nutsCode":"ES512"},
    {"ca":"CATALUÑA","province":"GIRONA","locality":"Girona","postalCode":"17002","nutsCode":"ES512"},
    {"ca":"CATALUÑA","province":"GIRONA","locality":"Girona","postalCode":"17004","nutsCode":"ES512"},
    {"ca":"CATALUÑA","province":"GIRONA","locality":"Girona","postalCode":"17007","nutsCode":"ES512"},
    {"ca":"CATALUÑA","province":"GIRONA","locality":"Girona","postalCode":"17004","nutsCode":"ES512"},
    {"ca":"CATALUÑA","province":"GIRONA","locality":"Girona","postalCode":"17007","nutsCode":"ES512"},
    {"ca":"CATALUÑA","province":"GIRONA","locality":"Girona","postalCode":"17007","nutsCode":"ES512"},
    {"ca":"CATALUÑA","province":"GIRONA","locality":"Girona","postalCode":"17007","nutsCode":"ES512"},
    {"ca":"ANDALUCÍA","province":"GRANADA","locality":"Granada","postalCode":"18014","nutsCode":"ES614"},
    {"ca":"ANDALUCÍA","province":"GRANADA","locality":"Granada","postalCode":"18008","nutsCode":"ES614"},
    {"ca":"ANDALUCÍA","province":"GRANADA","locality":"Granada","postalCode":"18016","nutsCode":"ES614"},
    {"ca":"ANDALUCÍA","province":"GRANADA","locality":"Granada","postalCode":"18014","nutsCode":"ES614"},
    {"ca":"ANDALUCÍA","province":"GRANADA","locality":"Granada","postalCode":"18014","nutsCode":"ES614"},
    {"ca":"ANDALUCÍA","province":"GRANADA","locality":"Granada","postalCode":"18001","nutsCode":"ES614"},
    {"ca":"ANDALUCÍA","province":"GRANADA","locality":"Granada","postalCode":"18004","nutsCode":"ES614"},
    {"ca":"ANDALUCÍA","province":"GRANADA","locality":"Granada","postalCode":"18001","nutsCode":"ES614"},
    {"ca":"CASTILLA-LA MANCHA","province":"GUADALAJARA","locality":"Guadalajara","postalCode":"19004","nutsCode":"ES424"},
    {"ca":"CASTILLA-LA MANCHA","province":"GUADALAJARA","locality":"Guadalajara","postalCode":"19002","nutsCode":"ES424"},
    {"ca":"CASTILLA-LA MANCHA","province":"GUADALAJARA","locality":"Guadalajara","postalCode":"19001","nutsCode":"ES424"},
    {"ca":"CASTILLA-LA MANCHA","province":"GUADALAJARA","locality":"Guadalajara","postalCode":"19003","nutsCode":"ES424"},
    {"ca":"ANDALUCÍA","province":"HUELVA","locality":"Huelva","postalCode":"21005","nutsCode":"ES615"},
    {"ca":"ANDALUCÍA","province":"HUELVA","locality":"Huelva","postalCode":"21080","nutsCode":"ES615"},
    {"ca":"ANDALUCÍA","province":"HUELVA","locality":"Huelva","postalCode":"21005","nutsCode":"ES615"},
    {"ca":"ANDALUCÍA","province":"HUELVA","locality":"Huelva","postalCode":"21002","nutsCode":"ES615"},
    {"ca":"ANDALUCÍA","province":"HUELVA","locality":"Huelva","postalCode":"21004","nutsCode":"ES615"},
    {"ca":"ANDALUCÍA","province":"HUELVA","locality":"Huelva","postalCode":"21080","nutsCode":"ES615"},
    {"ca":"ARAGÓN","province":"HUESCA","locality":"Huesca","postalCode":"22004","nutsCode":"ES241"},
    {"ca":"ARAGÓN","province":"HUESCA","locality":"Huesca","postalCode":"22006","nutsCode":"ES241"},
    {"ca":"ARAGÓN","province":"HUESCA","locality":"Huesca","postalCode":"22006","nutsCode":"ES241"},
    {"ca":"ARAGÓN","province":"HUESCA","locality":"Huesca","postalCode":"22004","nutsCode":"ES241"},
    {"ca":"ANDALUCÍA","province":"JAÉN","locality":"Jaén","postalCode":"23007","nutsCode":"ES616"},
    {"ca":"ANDALUCÍA","province":"JAÉN","locality":"Jaén","postalCode":"23007","nutsCode":"ES616"},
    {"ca":"ANDALUCÍA","province":"JAÉN","locality":"Jaén","postalCode":"23007","nutsCode":"ES616"},
    {"ca":"ANDALUCÍA","province":"JAÉN","locality":"Jaén","postalCode":"23009","nutsCode":"ES616"},
    {"ca":"ANDALUCÍA","province":"JAÉN","locality":"Jaén","postalCode":"23071","nutsCode":"ES616"},
    {"ca":"ANDALUCÍA","province":"JAÉN","locality":"Jaén","postalCode":"23008","nutsCode":"ES616"},
    {"ca":"CASTILLA Y LEÓN","province":"LEÓN","locality":"León","postalCode":"24080","nutsCode":"ES413"},
    {"ca":"CASTILLA Y LEÓN","province":"LEÓN","locality":"León","postalCode":"24080","nutsCode":"ES413"},
    {"ca":"CASTILLA Y LEÓN","province":"LEÓN","locality":"León","postalCode":"24004","nutsCode":"ES413"},
    {"ca":"CASTILLA Y LEÓN","province":"LEÓN","locality":"León","postalCode":"24003","nutsCode":"ES413"},
    {"ca":"CASTILLA Y LEÓN","province":"LEÓN","locality":"León","postalCode":"24008","nutsCode":"ES413"},
    {"ca":"CASTILLA Y LEÓN","province":"LEÓN","locality":"León","postalCode":"24080","nutsCode":"ES413"},
    {"ca":"CATALUÑA","province":"LLEIDA","locality":"Lleida","postalCode":"25003","nutsCode":"ES513"},
    {"ca":"CATALUÑA","province":"LLEIDA","locality":"Lleida","postalCode":"25004","nutsCode":"ES513"},
    {"ca":"CATALUÑA","province":"LLEIDA","locality":"Lleida","postalCode":"25198","nutsCode":"ES513"},
    {"ca":"CATALUÑA","province":"LLEIDA","locality":"Lleida","postalCode":"25002","nutsCode":"ES513"},
    {"ca":"CATALUÑA","province":"LLEIDA","locality":"Lleida","postalCode":"25198","nutsCode":"ES513"},
    {"ca":"CATALUÑA","province":"LLEIDA","locality":"Lleida","postalCode":"25002","nutsCode":"ES513"},
    {"ca":"CATALUÑA","province":"LLEIDA","locality":"Lleida","postalCode":"25198","nutsCode":"ES513"},
    {"ca":"LA RIOJA","province":"LA RIOJA","locality":"Logroño","postalCode":"26006","nutsCode":"ES230"},
    {"ca":"LA RIOJA","province":"LA RIOJA","locality":"Logroño","postalCode":"26006","nutsCode":"ES230"},
    {"ca":"LA RIOJA","province":"LA RIOJA","locality":"Logroño","postalCode":"26001","nutsCode":"ES230"},
    {"ca":"LA RIOJA","province":"LA RIOJA","locality":"Logroño","postalCode":"26006","nutsCode":"ES230"},
    {"ca":"GALICIA","province":"LUGO","locality":"Lugo","postalCode":"27001","nutsCode":"ES112"},
    {"ca":"GALICIA","province":"LUGO","locality":"Lugo","postalCode":"27003","nutsCode":"ES112"},
    {"ca":"GALICIA","province":"LUGO","locality":"Lugo","postalCode":"27003","nutsCode":"ES112"},
    {"ca":"GALICIA","province":"LUGO","locality":"Lugo","postalCode":"27210","nutsCode":"ES112"},
    {"ca":"GALICIA","province":"LUGO","locality":"Lugo","postalCode":"27004","nutsCode":"ES112"},
    {"ca":"MADRID","province":"MADRID","locality":"Madrid","postalCode":"28007","nutsCode":"ES300"},
    {"ca":"MADRID","province":"MADRID","locality":"Madrid","postalCode":"28002","nutsCode":"ES300"},
    {"ca":"MADRID","province":"MADRID","locality":"Madrid","postalCode":"28005","nutsCode":"ES300"},
    {"ca":"MADRID","province":"MADRID","locality":"Madrid","postalCode":"28016","nutsCode":"ES300"},
    {"ca":"MADRID","province":"MADRID","locality":"Madrid","postalCode":"28006","nutsCode":"ES300"},
    {"ca":"MADRID","province":"MADRID","locality":"Madrid","postalCode":"28049","nutsCode":"ES300"},
    {"ca":"MADRID","province":"MADRID","locality":"Madrid","postalCode":"28007","nutsCode":"ES300"},
    {"ca":"MADRID","province":"MADRID","locality":"Madrid","postalCode":"28007","nutsCode":"ES300"},
    {"ca":"MADRID","province":"MADRID","locality":"Madrid","postalCode":"28049","nutsCode":"ES300"},
    {"ca":"MADRID","province":"MADRID","locality":"Madrid","postalCode":"28029","nutsCode":"ES300"},
    {"ca":"MADRID","province":"MADRID","locality":"Madrid","postalCode":"28003","nutsCode":"ES300"},
    {"ca":"MADRID","province":"MADRID","locality":"Madrid","postalCode":"28009","nutsCode":"ES300"},
    {"ca":"MADRID","province":"MADRID","locality":"Madrid","postalCode":"28006","nutsCode":"ES300"},
    {"ca":"MADRID","province":"MADRID","locality":"Madrid","postalCode":"28009","nutsCode":"ES300"},
    {"ca":"MADRID","province":"MADRID","locality":"Madrid","postalCode":"28028","nutsCode":"ES300"},
    {"ca":"MADRID","province":"MADRID","locality":"Madrid","postalCode":"28031","nutsCode":"ES300"},
    {"ca":"MADRID","province":"MADRID","locality":"Madrid","postalCode":"28040","nutsCode":"ES300"},
    {"ca":"MADRID","province":"MADRID","locality":"Madrid","postalCode":"28041","nutsCode":"ES300"},
    {"ca":"MADRID","province":"MADRID","locality":"Madrid","postalCode":"28034","nutsCode":"ES300"},
    {"ca":"MADRID","province":"MADRID","locality":"Madrid","postalCode":"28046","nutsCode":"ES300"},
    {"ca":"MADRID","province":"MADRID","locality":"Madrid","postalCode":"28031","nutsCode":"ES300"},
    {"ca":"MADRID","province":"MADRID","locality":"Madrid","postalCode":"28027","nutsCode":"ES300"},
    {"ca":"MADRID","province":"MADRID","locality":"Madrid","postalCode":"28031","nutsCode":"ES300"},
    {"ca":"MADRID","province":"MADRID","locality":"Madrid","postalCode":"28023","nutsCode":"ES300"},
    {"ca":"MADRID","province":"MADRID","locality":"Madrid","postalCode":"28050","nutsCode":"ES300"},
    {"ca":"MADRID","province":"MADRID","locality":"Madrid","postalCode":"28047","nutsCode":"ES300"},
    {"ca":"MADRID","province":"MADRID","locality":"Madrid","postalCode":"28050","nutsCode":"ES300"},
    {"ca":"MADRID","province":"MADRID","locality":"Madrid","postalCode":"28046","nutsCode":"ES300"},
    {"ca":"MADRID","province":"MADRID","locality":"Madrid","postalCode":"28033","nutsCode":"ES300"},
    {"ca":"MADRID","province":"MADRID","locality":"Madrid","postalCode":"28035","nutsCode":"ES300"},
    {"ca":"MADRID","province":"MADRID","locality":"Madrid","postalCode":"28008","nutsCode":"ES300"},
    {"ca":"MADRID","province":"MADRID","locality":"Madrid","postalCode":"28040","nutsCode":"ES300"},
    {"ca":"MADRID","province":"MADRID","locality":"Madrid","postalCode":"28015","nutsCode":"ES300"},
    {"ca":"MADRID","province":"MADRID","locality":"Madrid","postalCode":"28035","nutsCode":"ES300"},
    {"ca":"MADRID","province":"MADRID","locality":"Madrid","postalCode":"28047","nutsCode":"ES300"},
    {"ca":"MADRID","province":"MADRID","locality":"Madrid","postalCode":"28044","nutsCode":"ES300"},
    {"ca":"MADRID","province":"MADRID","locality":"Madrid","postalCode":"28035","nutsCode":"ES300"},
    {"ca":"MADRID","province":"MADRID","locality":"Madrid","postalCode":"28007","nutsCode":"ES300"},
    {"ca":"MADRID","province":"MADRID","locality":"Madrid","postalCode":"28043","nutsCode":"ES300"},
    {"ca":"MADRID","province":"MADRID","locality":"Madrid","postalCode":"28023","nutsCode":"ES300"},
    {"ca":"MADRID","province":"MADRID","locality":"Madrid","postalCode":"28010","nutsCode":"ES300"},
    {"ca":"MADRID","province":"MADRID","locality":"Madrid","postalCode":"28034","nutsCode":"ES300"},
    {"ca":"MADRID","province":"MADRID","locality":"Madrid","postalCode":"28006","nutsCode":"ES300"},
    {"ca":"MADRID","province":"MADRID","locality":"Madrid","postalCode":"28027","nutsCode":"ES300"},
    {"ca":"MADRID","province":"MADRID","locality":"Madrid","postalCode":"28003","nutsCode":"ES300"},
    {"ca":"MADRID","province":"MADRID","locality":"Madrid","postalCode":"28003","nutsCode":"ES300"},
    {"ca":"MADRID","province":"MADRID","locality":"Madrid","postalCode":"28043","nutsCode":"ES300"},
    {"ca":"MADRID","province":"MADRID","locality":"Madrid","postalCode":"28006","nutsCode":"ES300"},
    {"ca":"MADRID","province":"MADRID","locality":"Madrid","postalCode":"28049","nutsCode":"ES300"},
    {"ca":"MADRID","province":"MADRID","locality":"Madrid","postalCode":"28016","nutsCode":"ES300"},
    {"ca":"MADRID","province":"MADRID","locality":"Madrid","postalCode":"28040","nutsCode":"ES300"},
    {"ca":"MADRID","province":"MADRID","locality":"Madrid","postalCode":"28054","nutsCode":"ES300"},
    {"ca":"MADRID","province":"MADRID","locality":"Madrid","postalCode":"28043","nutsCode":"ES300"},
    {"ca":"MADRID","province":"MADRID","locality":"Madrid","postalCode":"28043","nutsCode":"ES300"},
    {"ca":"MADRID","province":"MADRID","locality":"Madrid","postalCode":"28002","nutsCode":"ES300"},
    {"ca":"MADRID","province":"MADRID","locality":"Madrid","postalCode":"28003","nutsCode":"ES300"},
    {"ca":"ANDALUCÍA","province":"MALAGA","locality":"Málaga","postalCode":"29007","nutsCode":"ES617"},
    {"ca":"ANDALUCÍA","province":"MALAGA","locality":"Málaga","postalCode":"29018","nutsCode":"ES617"},
    {"ca":"ANDALUCÍA","province":"MALAGA","locality":"Málaga","postalCode":"29010","nutsCode":"ES617"},
    {"ca":"ANDALUCÍA","province":"MALAGA","locality":"Málaga","postalCode":"29010","nutsCode":"ES617"},
    {"ca":"ANDALUCÍA","province":"MALAGA","locality":"Málaga","postalCode":"29009","nutsCode":"ES617"},
    {"ca":"ANDALUCÍA","province":"MALAGA","locality":"Málaga","postalCode":"29014","nutsCode":"ES617"},
    {"ca":"ANDALUCÍA","province":"MALAGA","locality":"Málaga","postalCode":"29014","nutsCode":"ES617"},
    {"ca":"ANDALUCÍA","province":"MALAGA","locality":"Málaga","postalCode":"29016","nutsCode":"ES617"},
    {"ca":"ANDALUCÍA","province":"MALAGA","locality":"Málaga","postalCode":"29007","nutsCode":"ES617"},
    {"ca":"ANDALUCÍA","province":"MALAGA","locality":"Málaga","postalCode":"29015","nutsCode":"ES617"},
    {"ca":"ANDALUCÍA","province":"MALAGA","locality":"Málaga","postalCode":"29018","nutsCode":"ES617"},
    {"ca":"ANDALUCÍA","province":"MALAGA","locality":"Málaga","postalCode":"29016","nutsCode":"ES617"},
    {"ca":"ANDALUCÍA","province":"MALAGA","locality":"Málaga","postalCode":"29004","nutsCode":"ES617"},
    {"ca":"ANDALUCÍA","province":"MALAGA","locality":"Málaga","postalCode":"29012","nutsCode":"ES617"},
    {"ca":"ANDALUCÍA","province":"MALAGA","locality":"Málaga","postalCode":"29011","nutsCode":"ES617"},
    {"ca":"ANDALUCÍA","province":"MALAGA","locality":"Málaga","postalCode":"29010","nutsCode":"ES617"},
    {"ca":"ANDALUCÍA","province":"MALAGA","locality":"Málaga","postalCode":"29010","nutsCode":"ES617"},
    {"ca":"MELILLA","province":"MELILLA","locality":"Melilla","postalCode":"52005","nutsCode":"ES640"},
    {"ca":"REGIÓN DE MURCIA","province":"MURCIA","locality":"Murcia","postalCode":"30120","nutsCode":"ES620"},
    {"ca":"REGIÓN DE MURCIA","province":"MURCIA","locality":"Murcia","postalCode":"30003","nutsCode":"ES620"},
    {"ca":"REGIÓN DE MURCIA","province":"MURCIA","locality":"Murcia","postalCode":"30011","nutsCode":"ES620"},
    {"ca":"REGIÓN DE MURCIA","province":"MURCIA","locality":"Murcia","postalCode":"30008","nutsCode":"ES620"},
    {"ca":"REGIÓN DE MURCIA","province":"MURCIA","locality":"Murcia","postalCode":"30010","nutsCode":"ES620"},
    {"ca":"REGIÓN DE MURCIA","province":"MURCIA","locality":"Murcia","postalCode":"30120","nutsCode":"ES620"},
    {"ca":"REGIÓN DE MURCIA","province":"MURCIA","locality":"Murcia","postalCode":"30008","nutsCode":"ES620"},
    {"ca":"REGIÓN DE MURCIA","province":"MURCIA","locality":"Murcia","postalCode":"30100","nutsCode":"ES620"},
    {"ca":"REGIÓN DE MURCIA","province":"MURCIA","locality":"Murcia","postalCode":"30120","nutsCode":"ES620"},
    {"ca":"REGIÓN DE MURCIA","province":"MURCIA","locality":"Murcia","postalCode":"30120","nutsCode":"ES620"},
    {"ca":"GALICIA","province":"OURENSE","locality":"Ourense","postalCode":"32003","nutsCode":"ES113"},
    {"ca":"GALICIA","province":"OURENSE","locality":"Ourense","postalCode":"32005","nutsCode":"ES113"},
    {"ca":"GALICIA","province":"OURENSE","locality":"Ourense","postalCode":"32005","nutsCode":"ES113"},
    {"ca":"GALICIA","province":"OURENSE","locality":"Ourense","postalCode":"32005","nutsCode":"ES113"},
    {"ca":"GALICIA","province":"OURENSE","locality":"Ourense","postalCode":"32003","nutsCode":"ES113"},
    {"ca":"PPDO. DE ASTURIAS","province":"ASTURIAS","locality":"Oviedo","postalCode":"33193","nutsCode":"ES120"},
    {"ca":"PPDO. DE ASTURIAS","province":"ASTURIAS","locality":"Oviedo","postalCode":"33012","nutsCode":"ES120"},
    {"ca":"PPDO. DE ASTURIAS","province":"ASTURIAS","locality":"Oviedo","postalCode":"33011","nutsCode":"ES120"},
    {"ca":"PPDO. DE ASTURIAS","province":"ASTURIAS","locality":"Oviedo","postalCode":"33011","nutsCode":"ES120"},
    {"ca":"PPDO. DE ASTURIAS","province":"ASTURIAS","locality":"Oviedo","postalCode":"33006","nutsCode":"ES120"},
    {"ca":"PPDO. DE ASTURIAS","province":"ASTURIAS","locality":"Oviedo","postalCode":"33012","nutsCode":"ES120"},
    {"ca":"PPDO. DE ASTURIAS","province":"ASTURIAS","locality":"Oviedo","postalCode":"33012","nutsCode":"ES120"},
    {"ca":"CASTILLA Y LEÓN","province":"PALENCIA","locality":"Palencia","postalCode":"34005","nutsCode":"ES414"},
    {"ca":"CASTILLA Y LEÓN","province":"PALENCIA","locality":"Palencia","postalCode":"34005","nutsCode":"ES414"},
    {"ca":"CASTILLA Y LEÓN","province":"PALENCIA","locality":"Palencia","postalCode":"34005","nutsCode":"ES414"},
    {"ca":"CASTILLA Y LEÓN","province":"PALENCIA","locality":"Palencia","postalCode":"34004","nutsCode":"ES414"},
    {"ca":"CASTILLA Y LEÓN","province":"PALENCIA","locality":"Palencia","postalCode":"34004","nutsCode":"ES414"},
    {"ca":"CASTILLA Y LEÓN","province":"PALENCIA","locality":"Palencia","postalCode":"34005","nutsCode":"ES414"},
    {"ca":"ILLES BALEARS","province":"ILLES BALEARS","locality":"Palma de Mallorca","postalCode":"7012","nutsCode":"ES532"},
    {"ca":"ILLES BALEARS","province":"ILLES BALEARS","locality":"Palma de Mallorca","postalCode":"7014","nutsCode":"ES532"},
    {"ca":"ILLES BALEARS","province":"ILLES BALEARS","locality":"Palma de Mallorca","postalCode":"7010","nutsCode":"ES532"},
    {"ca":"ILLES BALEARS","province":"ILLES BALEARS","locality":"Palma de Mallorca","postalCode":"7012","nutsCode":"ES532"},
    {"ca":"ILLES BALEARS","province":"ILLES BALEARS","locality":"Palma de Mallorca","postalCode":"7004","nutsCode":"ES532"},
    {"ca":"ILLES BALEARS","province":"ILLES BALEARS","locality":"Palma de Mallorca","postalCode":"7007","nutsCode":"ES532"},
    {"ca":"ILLES BALEARS","province":"ILLES BALEARS","locality":"Palma de Mallorca","postalCode":"7012","nutsCode":"ES532"},
    {"ca":"ILLES BALEARS","province":"ILLES BALEARS","locality":"Palma de Mallorca","postalCode":"7014","nutsCode":"ES532"},
    {"ca":"ILLES BALEARS","province":"ILLES BALEARS","locality":"Palma de Mallorca","postalCode":"7011","nutsCode":"ES532"},
    {"ca":"ILLES BALEARS","province":"ILLES BALEARS","locality":"Palma de Mallorca","postalCode":"7120","nutsCode":"ES532"},
    {"ca":"ILLES BALEARS","province":"ILLES BALEARS","locality":"Palma de Mallorca","postalCode":"7198","nutsCode":"ES532"},
    {"ca":"ILLES BALEARS","province":"ILLES BALEARS","locality":"Palma de Mallorca","postalCode":"7010","nutsCode":"ES532"},
    {"ca":"CANARIAS","province":"LAS PALMAS","locality":"Palmas de Gran Canaria, Las","postalCode":"35017","nutsCode":"ES705"},
    {"ca":"CANARIAS","province":"LAS PALMAS","locality":"Palmas de Gran Canaria, Las","postalCode":"35010","nutsCode":"ES705"},
    {"ca":"CANARIAS","province":"LAS PALMAS","locality":"Palmas de Gran Canaria, Las","postalCode":"35014","nutsCode":"ES705"},
    {"ca":"CANARIAS","province":"LAS PALMAS","locality":"Palmas de Gran Canaria, Las","postalCode":"35010","nutsCode":"ES705"},
    {"ca":"CANARIAS","province":"LAS PALMAS","locality":"Palmas de Gran Canaria, Las","postalCode":"35016","nutsCode":"ES705"},
    {"ca":"CANARIAS","province":"LAS PALMAS","locality":"Palmas de Gran Canaria, Las","postalCode":"35016","nutsCode":"ES705"},
    {"ca":"CANARIAS","province":"LAS PALMAS","locality":"Palmas de Gran Canaria, Las","postalCode":"35016","nutsCode":"ES705"},
    {"ca":"CANARIAS","province":"LAS PALMAS","locality":"Palmas de Gran Canaria, Las","postalCode":"35007","nutsCode":"ES705"},
    {"ca":"CANARIAS","province":"LAS PALMAS","locality":"Palmas de Gran Canaria, Las","postalCode":"35017","nutsCode":"ES705"},
    {"ca":"CANARIAS","province":"LAS PALMAS","locality":"Palmas de Gran Canaria, Las","postalCode":"35001","nutsCode":"ES705"},
    {"ca":"CANARIAS","province":"LAS PALMAS","locality":"Palmas de Gran Canaria, Las","postalCode":"35003","nutsCode":"ES705"},
    {"ca":"CANARIAS","province":"LAS PALMAS","locality":"Palmas de Gran Canaria, Las","postalCode":"35005","nutsCode":"ES705"},
    {"ca":"CANARIAS","province":"LAS PALMAS","locality":"Palmas de Gran Canaria, Las","postalCode":"35005","nutsCode":"ES705"},
    {"ca":"CANARIAS","province":"LAS PALMAS","locality":"Palmas de Gran Canaria, Las","postalCode":"35008","nutsCode":"ES705"},
    {"ca":"C. FORAL DE NAVARRA","province":"NAVARRA","locality":"Pamplona/Iruña","postalCode":"31015","nutsCode":"ES220"},
    {"ca":"C. FORAL DE NAVARRA","province":"NAVARRA","locality":"Pamplona/Iruña","postalCode":"31006","nutsCode":"ES220"},
    {"ca":"C. FORAL DE NAVARRA","province":"NAVARRA","locality":"Pamplona/Iruña","postalCode":"31014","nutsCode":"ES220"},
    {"ca":"C. FORAL DE NAVARRA","province":"NAVARRA","locality":"Pamplona/Iruña","postalCode":"31008","nutsCode":"ES220"},
    {"ca":"C. FORAL DE NAVARRA","province":"NAVARRA","locality":"Pamplona/Iruña","postalCode":"31006","nutsCode":"ES220"},
    {"ca":"C. FORAL DE NAVARRA","province":"NAVARRA","locality":"Pamplona/Iruña","postalCode":"31003","nutsCode":"ES220"},
    {"ca":"C. FORAL DE NAVARRA","province":"NAVARRA","locality":"Pamplona/Iruña","postalCode":"31008","nutsCode":"ES220"},
    {"ca":"GALICIA","province":"PONTEVEDRA","locality":"Pontevedra","postalCode":"36071","nutsCode":"ES114"},
    {"ca":"GALICIA","province":"PONTEVEDRA","locality":"Pontevedra","postalCode":"36004","nutsCode":"ES114"},
    {"ca":"GALICIA","province":"PONTEVEDRA","locality":"Pontevedra","postalCode":"36002","nutsCode":"ES114"},
    {"ca":"GALICIA","province":"PONTEVEDRA","locality":"Pontevedra","postalCode":"36001","nutsCode":"ES114"},
    {"ca":"GALICIA","province":"PONTEVEDRA","locality":"Pontevedra","postalCode":"36071","nutsCode":"ES114"},
    {"ca":"CASTILLA Y LEÓN","province":"SALAMANCA","locality":"Salamanca","postalCode":"37007","nutsCode":"ES415"},
    {"ca":"CASTILLA Y LEÓN","province":"SALAMANCA","locality":"Salamanca","postalCode":"37007","nutsCode":"ES415"},
    {"ca":"CASTILLA Y LEÓN","province":"SALAMANCA","locality":"Salamanca","postalCode":"37007","nutsCode":"ES415"},
    {"ca":"CATALUÑA","province":"BARCELONA","locality":"Sant Cugat del Vallès","postalCode":"8195","nutsCode":"ES511"},
    {"ca":"CANARIAS","province":"SANTA CRUZ DE TENERIFE","locality":"Santa Cruz de Tenerife","postalCode":"38006","nutsCode":"ES709"},
    {"ca":"CANARIAS","province":"SANTA CRUZ DE TENERIFE","locality":"Santa Cruz de Tenerife","postalCode":"38009","nutsCode":"ES709"},
    {"ca":"CANARIAS","province":"SANTA CRUZ DE TENERIFE","locality":"Santa Cruz de Tenerife","postalCode":"38002","nutsCode":"ES709"},
    {"ca":"CANARIAS","province":"SANTA CRUZ DE TENERIFE","locality":"Santa Cruz de Tenerife","postalCode":"38001","nutsCode":"ES709"},
    {"ca":"CANARIAS","province":"SANTA CRUZ DE TENERIFE","locality":"Santa Cruz de Tenerife","postalCode":"38006","nutsCode":"ES709"},
    {"ca":"CANARIAS","province":"SANTA CRUZ DE TENERIFE","locality":"Santa Cruz de Tenerife","postalCode":"38008","nutsCode":"ES709"},
    {"ca":"CANARIAS","province":"SANTA CRUZ DE TENERIFE","locality":"Santa Cruz de Tenerife","postalCode":"38010","nutsCode":"ES709"},
    {"ca":"CANARIAS","province":"SANTA CRUZ DE TENERIFE","locality":"Santa Cruz de Tenerife","postalCode":"38010","nutsCode":"ES709"},
    {"ca":"CANARIAS","province":"SANTA CRUZ DE TENERIFE","locality":"Santa Cruz de Tenerife","postalCode":"38006","nutsCode":"ES709"},
    {"ca":"CANTABRIA","province":"CANTABRIA","locality":"Santander","postalCode":"39008","nutsCode":"ES130"},
    {"ca":"CANTABRIA","province":"CANTABRIA","locality":"Santander","postalCode":"39006","nutsCode":"ES130"},
    {"ca":"CANTABRIA","province":"CANTABRIA","locality":"Santander","postalCode":"39012","nutsCode":"ES130"},
    {"ca":"CANTABRIA","province":"CANTABRIA","locality":"Santander","postalCode":"39012","nutsCode":"ES130"},
    {"ca":"CASTILLA Y LEÓN","province":"SEGOVIA","locality":"Segovia","postalCode":"40002","nutsCode":"ES416"},
    {"ca":"CASTILLA Y LEÓN","province":"SEGOVIA","locality":"Segovia","postalCode":"40002","nutsCode":"ES416"},
    {"ca":"CASTILLA Y LEÓN","province":"SEGOVIA","locality":"Segovia","postalCode":"40003","nutsCode":"ES416"},
    {"ca":"ANDALUCÍA","province":"SEVILLA","locality":"Sevilla","postalCode":"41071","nutsCode":"ES618"},
    {"ca":"ANDALUCÍA","province":"SEVILLA","locality":"Sevilla","postalCode":"41009","nutsCode":"ES618"},
    {"ca":"ANDALUCÍA","province":"SEVILLA","locality":"Sevilla","postalCode":"41009","nutsCode":"ES618"},
    {"ca":"ANDALUCÍA","province":"SEVILLA","locality":"Sevilla","postalCode":"41005","nutsCode":"ES618"},
    {"ca":"ANDALUCÍA","province":"SEVILLA","locality":"Sevilla","postalCode":"41012","nutsCode":"ES618"},
    {"ca":"ANDALUCÍA","province":"SEVILLA","locality":"Sevilla","postalCode":"41018","nutsCode":"ES618"},
    {"ca":"ANDALUCÍA","province":"SEVILLA","locality":"Sevilla","postalCode":"41013","nutsCode":"ES618"},
    {"ca":"ANDALUCÍA","province":"SEVILLA","locality":"Sevilla","postalCode":"41012","nutsCode":"ES618"},
    {"ca":"ANDALUCÍA","province":"SEVILLA","locality":"Sevilla","postalCode":"41010","nutsCode":"ES618"},
    {"ca":"ANDALUCÍA","province":"SEVILLA","locality":"Sevilla","postalCode":"41002","nutsCode":"ES618"},
    {"ca":"ANDALUCÍA","province":"SEVILLA","locality":"Sevilla","postalCode":"41014","nutsCode":"ES618"},
    {"ca":"ANDALUCÍA","province":"SEVILLA","locality":"Sevilla","postalCode":"41007","nutsCode":"ES618"},
    {"ca":"ANDALUCÍA","province":"SEVILLA","locality":"Sevilla","postalCode":"41013","nutsCode":"ES618"},
    {"ca":"ANDALUCÍA","province":"SEVILLA","locality":"Sevilla","postalCode":"41014","nutsCode":"ES618"},
    {"ca":"ANDALUCÍA","province":"SEVILLA","locality":"Sevilla","postalCode":"41013","nutsCode":"ES618"},
    {"ca":"ANDALUCÍA","province":"SEVILLA","locality":"Sevilla","postalCode":"41013","nutsCode":"ES618"},
    {"ca":"ANDALUCÍA","province":"SEVILLA","locality":"Sevilla","postalCode":"41013","nutsCode":"ES618"},
    {"ca":"ANDALUCÍA","province":"SEVILLA","locality":"Sevilla","postalCode":"41013","nutsCode":"ES618"},
    {"ca":"ANDALUCÍA","province":"SEVILLA","locality":"Sevilla","postalCode":"41013","nutsCode":"ES618"},
    {"ca":"ANDALUCÍA","province":"SEVILLA","locality":"Sevilla","postalCode":"41014","nutsCode":"ES618"},
    {"ca":"ANDALUCÍA","province":"SEVILLA","locality":"Sevilla","postalCode":"41009","nutsCode":"ES618"},
    {"ca":"CASTILLA Y LEÓN","province":"SORIA","locality":"Soria","postalCode":"42005","nutsCode":"ES417"},
    {"ca":"CASTILLA Y LEÓN","province":"SORIA","locality":"Soria","postalCode":"42005","nutsCode":"ES417"},
    {"ca":"CASTILLA Y LEÓN","province":"SORIA","locality":"Soria","postalCode":"42005","nutsCode":"ES417"},
    {"ca":"CATALUÑA","province":"TARRAGONA","locality":"Tarragona","postalCode":"43005","nutsCode":"ES514"},
    {"ca":"CATALUÑA","province":"TARRAGONA","locality":"Tarragona","postalCode":"43003","nutsCode":"ES514"},
    {"ca":"CATALUÑA","province":"TARRAGONA","locality":"Tarragona","postalCode":"43005","nutsCode":"ES514"},
    {"ca":"CATALUÑA","province":"TARRAGONA","locality":"Tarragona","postalCode":"43006","nutsCode":"ES514"},
    {"ca":"CATALUÑA","province":"TARRAGONA","locality":"Tarragona","postalCode":"43007","nutsCode":"ES514"},
    {"ca":"CATALUÑA","province":"TARRAGONA","locality":"Tarragona","postalCode":"43002","nutsCode":"ES514"},
    {"ca":"CATALUÑA","province":"TARRAGONA","locality":"Tarragona","postalCode":"43002","nutsCode":"ES514"},
    {"ca":"ARAGÓN","province":"TERUEL","locality":"Teruel","postalCode":"44002","nutsCode":"ES242"},
    {"ca":"ARAGÓN","province":"TERUEL","locality":"Teruel","postalCode":"44001","nutsCode":"ES242"},
    {"ca":"ARAGÓN","province":"TERUEL","locality":"Teruel","postalCode":"44001","nutsCode":"ES242"},
    {"ca":"CASTILLA-LA MANCHA","province":"TOLEDO","locality":"Toledo","postalCode":"45005","nutsCode":"ES425"},
    {"ca":"CASTILLA-LA MANCHA","province":"TOLEDO","locality":"Toledo","postalCode":"45005","nutsCode":"ES425"},
    {"ca":"CASTILLA-LA MANCHA","province":"TOLEDO","locality":"Toledo","postalCode":"45004","nutsCode":"ES425"},
    {"ca":"CASTILLA-LA MANCHA","province":"TOLEDO","locality":"Toledo","postalCode":"45004","nutsCode":"ES425"},
    {"ca":"CASTILLA-LA MANCHA","province":"TOLEDO","locality":"Toledo","postalCode":"45006","nutsCode":"ES425"},
    {"ca":"CASTILLA-LA MANCHA","province":"TOLEDO","locality":"Toledo","postalCode":"45071","nutsCode":"ES425"},
    {"ca":"CASTILLA-LA MANCHA","province":"TOLEDO","locality":"Toledo","postalCode":"45071","nutsCode":"ES425"},
    {"ca":"CASTILLA-LA MANCHA","province":"TOLEDO","locality":"Toledo","postalCode":"45004","nutsCode":"ES425"},
    {"ca":"COMUNIDAD VALENCIANA","province":"VALENCIA","locality":"Valencia","postalCode":"46007","nutsCode":"ES523"},
    {"ca":"COMUNIDAD VALENCIANA","province":"VALENCIA","locality":"Valencia","postalCode":"46010","nutsCode":"ES523"},
    {"ca":"COMUNIDAD VALENCIANA","province":"VALENCIA","locality":"Valencia","postalCode":"46026","nutsCode":"ES523"},
    {"ca":"COMUNIDAD VALENCIANA","province":"VALENCIA","locality":"Valencia","postalCode":"46017","nutsCode":"ES523"},
    {"ca":"COMUNIDAD VALENCIANA","province":"VALENCIA","locality":"Valencia","postalCode":"46015","nutsCode":"ES523"},
    {"ca":"COMUNIDAD VALENCIANA","province":"VALENCIA","locality":"Valencia","postalCode":"46017","nutsCode":"ES523"},
    {"ca":"COMUNIDAD VALENCIANA","province":"VALENCIA","locality":"Valencia","postalCode":"46010","nutsCode":"ES523"},
    {"ca":"COMUNIDAD VALENCIANA","province":"VALENCIA","locality":"Valencia","postalCode":"46015","nutsCode":"ES523"},
    {"ca":"COMUNIDAD VALENCIANA","province":"VALENCIA","locality":"Valencia","postalCode":"46009","nutsCode":"ES523"},
    {"ca":"COMUNIDAD VALENCIANA","province":"VALENCIA","locality":"Valencia","postalCode":"46011","nutsCode":"ES523"},
    {"ca":"COMUNIDAD VALENCIANA","province":"VALENCIA","locality":"Valencia","postalCode":"46021","nutsCode":"ES523"},
    {"ca":"COMUNIDAD VALENCIANA","province":"VALENCIA","locality":"Valencia","postalCode":"46014","nutsCode":"ES523"},
    {"ca":"COMUNIDAD VALENCIANA","province":"VALENCIA","locality":"Valencia","postalCode":"46011","nutsCode":"ES523"},
    {"ca":"COMUNIDAD VALENCIANA","province":"VALENCIA","locality":"Valencia","postalCode":"46004","nutsCode":"ES523"},
    {"ca":"CASTILLA Y LEÓN","province":"VALLADOLID","locality":"Valladolid","postalCode":"47003","nutsCode":"ES418"},
    {"ca":"CASTILLA Y LEÓN","province":"VALLADOLID","locality":"Valladolid","postalCode":"47012","nutsCode":"ES418"},
    {"ca":"CASTILLA Y LEÓN","province":"VALLADOLID","locality":"Valladolid","postalCode":"47002","nutsCode":"ES418"},
    {"ca":"CASTILLA Y LEÓN","province":"VALLADOLID","locality":"Valladolid","postalCode":"47008","nutsCode":"ES418"},
    {"ca":"CASTILLA Y LEÓN","province":"VALLADOLID","locality":"Valladolid","postalCode":"47003","nutsCode":"ES418"},
    {"ca":"CASTILLA Y LEÓN","province":"VALLADOLID","locality":"Valladolid","postalCode":"47007","nutsCode":"ES418"},
    {"ca":"PAÍS VASCO","province":"ÁLAVA","locality":"Vitoria-Gasteiz","postalCode":"1009","nutsCode":"ES211"},
    {"ca":"PAÍS VASCO","province":"ÁLAVA","locality":"Vitoria-Gasteiz","postalCode":"1007","nutsCode":"ES211"},
    {"ca":"PAÍS VASCO","province":"ÁLAVA","locality":"Vitoria-Gasteiz","postalCode":"1002","nutsCode":"ES211"},
    {"ca":"PAÍS VASCO","province":"ÁLAVA","locality":"Vitoria-Gasteiz","postalCode":"1008","nutsCode":"ES211"},
    {"ca":"PAÍS VASCO","province":"ÁLAVA","locality":"Vitoria-Gasteiz","postalCode":"1006","nutsCode":"ES211"},
    {"ca":"CASTILLA Y LEÓN","province":"ZAMORA","locality":"Zamora","postalCode":"49021","nutsCode":"ES419"},
    {"ca":"CASTILLA Y LEÓN","province":"ZAMORA","locality":"Zamora","postalCode":"49023","nutsCode":"ES419"},
    {"ca":"CASTILLA Y LEÓN","province":"ZAMORA","locality":"Zamora","postalCode":"49022","nutsCode":"ES419"},
    {"ca":"CASTILLA Y LEÓN","province":"ZAMORA","locality":"Zamora","postalCode":"49022","nutsCode":"ES419"},
    {"ca":"ARAGÓN","province":"ZARAGOZA","locality":"Zaragoza","postalCode":"50006","nutsCode":"ES243"},
    {"ca":"ARAGÓN","province":"ZARAGOZA","locality":"Zaragoza","postalCode":"50190","nutsCode":"ES243"},
    {"ca":"ARAGÓN","province":"ZARAGOZA","locality":"Zaragoza","postalCode":"50012","nutsCode":"ES243"},
    {"ca":"ARAGÓN","province":"ZARAGOZA","locality":"Zaragoza","postalCode":"50015","nutsCode":"ES243"},
    {"ca":"ARAGÓN","province":"ZARAGOZA","locality":"Zaragoza","postalCode":"50004","nutsCode":"ES243"},
    {"ca":"ARAGÓN","province":"ZARAGOZA","locality":"Zaragoza","postalCode":"50009","nutsCode":"ES243"},
    {"ca":"ARAGÓN","province":"ZARAGOZA","locality":"Zaragoza","postalCode":"50015","nutsCode":"ES243"},
    {"ca":"ARAGÓN","province":"ZARAGOZA","locality":"Zaragoza","postalCode":"50009","nutsCode":"ES243"},
    {"ca":"ARAGÓN","province":"ZARAGOZA","locality":"Zaragoza","postalCode":"50009","nutsCode":"ES243"},
    {"ca":"ARAGÓN","province":"ZARAGOZA","locality":"Zaragoza","postalCode":"50012","nutsCode":"ES243"},
    {"ca":"ARAGÓN","province":"ZARAGOZA","locality":"Zaragoza","postalCode":"50006","nutsCode":"ES243"},
    {"ca":"ARAGÓN","province":"ZARAGOZA","locality":"Zaragoza","postalCode":"50006","nutsCode":"ES243"},
    {"ca":"ARAGÓN","province":"ZARAGOZA","locality":"Zaragoza","postalCode":"50009","nutsCode":"ES243"},
    {"ca":"ARAGÓN","province":"ZARAGOZA","locality":"Zaragoza","postalCode":"50820","nutsCode":"ES243"},
    {"ca":"ARAGÓN","province":"ZARAGOZA","locality":"Zaragoza","postalCode":"50191","nutsCode":"ES243"}
    ]
